name,latitude,longitude,opening_hours,outdoor_seating,bar_orientation,hour,is_in_sunlight
Coffee Factory,41.9990758,21.4235228,,False,349,00:00,0
Coffee Factory,41.9990758,21.4235228,,False,349,01:00,0
Coffee Factory,41.9990758,21.4235228,,False,349,02:00,0
Coffee Factory,41.9990758,21.4235228,,False,349,03:00,0
Coffee Factory,41.9990758,21.4235228,,False,349,04:00,0
Coffee Factory,41.9990758,21.4235228,,False,349,05:00,0
Coffee Factory,41.9990758,21.4235228,,False,349,06:00,0
Coffee Factory,41.9990758,21.4235228,,False,349,07:00,0
Coffee Factory,41.9990758,21.4235228,,False,349,08:00,0
Coffee Factory,41.9990758,21.4235228,,False,349,09:00,0
Coffee Factory,41.9990758,21.4235228,,False,349,10:00,0
Coffee Factory,41.9990758,21.4235228,,False,349,11:00,0
Coffee Factory,41.9990758,21.4235228,,False,349,12:00,0
Coffee Factory,41.9990758,21.4235228,,False,349,13:00,0
Coffee Factory,41.9990758,21.4235228,,False,349,14:00,0
Coffee Factory,41.9990758,21.4235228,,False,349,15:00,0
Coffee Factory,41.9990758,21.4235228,,False,349,16:00,0
Coffee Factory,41.9990758,21.4235228,,False,349,17:00,0
Coffee Factory,41.9990758,21.4235228,,False,349,18:00,0
Coffee Factory,41.9990758,21.4235228,,False,349,19:00,0
Coffee Factory,41.9990758,21.4235228,,False,349,20:00,0
Coffee Factory,41.9990758,21.4235228,,False,349,21:00,0
Coffee Factory,41.9990758,21.4235228,,False,349,22:00,0
Coffee Factory,41.9990758,21.4235228,,False,349,23:00,0
Деус,42.0002817,21.4241291,,False,88,00:00,0
Деус,42.0002817,21.4241291,,False,88,01:00,0
Деус,42.0002817,21.4241291,,False,88,02:00,0
Деус,42.0002817,21.4241291,,False,88,03:00,0
Деус,42.0002817,21.4241291,,False,88,04:00,0
Деус,42.0002817,21.4241291,,False,88,05:00,0
Деус,42.0002817,21.4241291,,False,88,06:00,0
Деус,42.0002817,21.4241291,,False,88,07:00,0
Деус,42.0002817,21.4241291,,False,88,08:00,0
Деус,42.0002817,21.4241291,,False,88,09:00,0
Деус,42.0002817,21.4241291,,False,88,10:00,0
Деус,42.0002817,21.4241291,,False,88,11:00,0
Деус,42.0002817,21.4241291,,False,88,12:00,0
Деус,42.0002817,21.4241291,,False,88,13:00,0
Деус,42.0002817,21.4241291,,False,88,14:00,0
Деус,42.0002817,21.4241291,,False,88,15:00,0
Деус,42.0002817,21.4241291,,False,88,16:00,0
Деус,42.0002817,21.4241291,,False,88,17:00,0
Деус,42.0002817,21.4241291,,False,88,18:00,0
Деус,42.0002817,21.4241291,,False,88,19:00,0
Деус,42.0002817,21.4241291,,False,88,20:00,0
Деус,42.0002817,21.4241291,,False,88,21:00,0
Деус,42.0002817,21.4241291,,False,88,22:00,0
Деус,42.0002817,21.4241291,,False,88,23:00,0
Ирски паб Св. Патрик,41.9950681,21.4355937,"{'Mo-Th': '07:00-24:00', '': 'Fr,Sa 07:00-01:00'}",True,219,00:00,0
Ирски паб Св. Патрик,41.9950681,21.4355937,"{'Mo-Th': '07:00-24:00', '': 'Fr,Sa 07:00-01:00'}",True,219,01:00,0
Ирски паб Св. Патрик,41.9950681,21.4355937,"{'Mo-Th': '07:00-24:00', '': 'Fr,Sa 07:00-01:00'}",True,219,02:00,0
Ирски паб Св. Патрик,41.9950681,21.4355937,"{'Mo-Th': '07:00-24:00', '': 'Fr,Sa 07:00-01:00'}",True,219,03:00,0
Ирски паб Св. Патрик,41.9950681,21.4355937,"{'Mo-Th': '07:00-24:00', '': 'Fr,Sa 07:00-01:00'}",True,219,04:00,0
Ирски паб Св. Патрик,41.9950681,21.4355937,"{'Mo-Th': '07:00-24:00', '': 'Fr,Sa 07:00-01:00'}",True,219,05:00,0
Ирски паб Св. Патрик,41.9950681,21.4355937,"{'Mo-Th': '07:00-24:00', '': 'Fr,Sa 07:00-01:00'}",True,219,06:00,0
Ирски паб Св. Патрик,41.9950681,21.4355937,"{'Mo-Th': '07:00-24:00', '': 'Fr,Sa 07:00-01:00'}",True,219,07:00,0
Ирски паб Св. Патрик,41.9950681,21.4355937,"{'Mo-Th': '07:00-24:00', '': 'Fr,Sa 07:00-01:00'}",True,219,08:00,0
Ирски паб Св. Патрик,41.9950681,21.4355937,"{'Mo-Th': '07:00-24:00', '': 'Fr,Sa 07:00-01:00'}",True,219,09:00,0
Ирски паб Св. Патрик,41.9950681,21.4355937,"{'Mo-Th': '07:00-24:00', '': 'Fr,Sa 07:00-01:00'}",True,219,10:00,0
Ирски паб Св. Патрик,41.9950681,21.4355937,"{'Mo-Th': '07:00-24:00', '': 'Fr,Sa 07:00-01:00'}",True,219,11:00,0
Ирски паб Св. Патрик,41.9950681,21.4355937,"{'Mo-Th': '07:00-24:00', '': 'Fr,Sa 07:00-01:00'}",True,219,12:00,0
Ирски паб Св. Патрик,41.9950681,21.4355937,"{'Mo-Th': '07:00-24:00', '': 'Fr,Sa 07:00-01:00'}",True,219,13:00,0
Ирски паб Св. Патрик,41.9950681,21.4355937,"{'Mo-Th': '07:00-24:00', '': 'Fr,Sa 07:00-01:00'}",True,219,14:00,0
Ирски паб Св. Патрик,41.9950681,21.4355937,"{'Mo-Th': '07:00-24:00', '': 'Fr,Sa 07:00-01:00'}",True,219,15:00,0
Ирски паб Св. Патрик,41.9950681,21.4355937,"{'Mo-Th': '07:00-24:00', '': 'Fr,Sa 07:00-01:00'}",True,219,16:00,0
Ирски паб Св. Патрик,41.9950681,21.4355937,"{'Mo-Th': '07:00-24:00', '': 'Fr,Sa 07:00-01:00'}",True,219,17:00,0
Ирски паб Св. Патрик,41.9950681,21.4355937,"{'Mo-Th': '07:00-24:00', '': 'Fr,Sa 07:00-01:00'}",True,219,18:00,0
Ирски паб Св. Патрик,41.9950681,21.4355937,"{'Mo-Th': '07:00-24:00', '': 'Fr,Sa 07:00-01:00'}",True,219,19:00,0
Ирски паб Св. Патрик,41.9950681,21.4355937,"{'Mo-Th': '07:00-24:00', '': 'Fr,Sa 07:00-01:00'}",True,219,20:00,0
Ирски паб Св. Патрик,41.9950681,21.4355937,"{'Mo-Th': '07:00-24:00', '': 'Fr,Sa 07:00-01:00'}",True,219,21:00,0
Ирски паб Св. Патрик,41.9950681,21.4355937,"{'Mo-Th': '07:00-24:00', '': 'Fr,Sa 07:00-01:00'}",True,219,22:00,0
Ирски паб Св. Патрик,41.9950681,21.4355937,"{'Mo-Th': '07:00-24:00', '': 'Fr,Sa 07:00-01:00'}",True,219,23:00,0
Правда,41.9989439,21.422865,,False,129,00:00,0
Правда,41.9989439,21.422865,,False,129,01:00,0
Правда,41.9989439,21.422865,,False,129,02:00,0
Правда,41.9989439,21.422865,,False,129,03:00,0
Правда,41.9989439,21.422865,,False,129,04:00,0
Правда,41.9989439,21.422865,,False,129,05:00,0
Правда,41.9989439,21.422865,,False,129,06:00,0
Правда,41.9989439,21.422865,,False,129,07:00,0
Правда,41.9989439,21.422865,,False,129,08:00,0
Правда,41.9989439,21.422865,,False,129,09:00,0
Правда,41.9989439,21.422865,,False,129,10:00,0
Правда,41.9989439,21.422865,,False,129,11:00,0
Правда,41.9989439,21.422865,,False,129,12:00,0
Правда,41.9989439,21.422865,,False,129,13:00,0
Правда,41.9989439,21.422865,,False,129,14:00,0
Правда,41.9989439,21.422865,,False,129,15:00,0
Правда,41.9989439,21.422865,,False,129,16:00,0
Правда,41.9989439,21.422865,,False,129,17:00,0
Правда,41.9989439,21.422865,,False,129,18:00,0
Правда,41.9989439,21.422865,,False,129,19:00,0
Правда,41.9989439,21.422865,,False,129,20:00,0
Правда,41.9989439,21.422865,,False,129,21:00,0
Правда,41.9989439,21.422865,,False,129,22:00,0
Правда,41.9989439,21.422865,,False,129,23:00,0
Tribeca - Botanic Shop & Cafe,42.0072144,21.4113588,,True,97,00:00,0
Tribeca - Botanic Shop & Cafe,42.0072144,21.4113588,,True,97,01:00,0
Tribeca - Botanic Shop & Cafe,42.0072144,21.4113588,,True,97,02:00,0
Tribeca - Botanic Shop & Cafe,42.0072144,21.4113588,,True,97,03:00,0
Tribeca - Botanic Shop & Cafe,42.0072144,21.4113588,,True,97,04:00,0
Tribeca - Botanic Shop & Cafe,42.0072144,21.4113588,,True,97,05:00,0
Tribeca - Botanic Shop & Cafe,42.0072144,21.4113588,,True,97,06:00,0
Tribeca - Botanic Shop & Cafe,42.0072144,21.4113588,,True,97,07:00,0
Tribeca - Botanic Shop & Cafe,42.0072144,21.4113588,,True,97,08:00,0
Tribeca - Botanic Shop & Cafe,42.0072144,21.4113588,,True,97,09:00,0
Tribeca - Botanic Shop & Cafe,42.0072144,21.4113588,,True,97,10:00,0
Tribeca - Botanic Shop & Cafe,42.0072144,21.4113588,,True,97,11:00,0
Tribeca - Botanic Shop & Cafe,42.0072144,21.4113588,,True,97,12:00,0
Tribeca - Botanic Shop & Cafe,42.0072144,21.4113588,,True,97,13:00,0
Tribeca - Botanic Shop & Cafe,42.0072144,21.4113588,,True,97,14:00,0
Tribeca - Botanic Shop & Cafe,42.0072144,21.4113588,,True,97,15:00,0
Tribeca - Botanic Shop & Cafe,42.0072144,21.4113588,,True,97,16:00,0
Tribeca - Botanic Shop & Cafe,42.0072144,21.4113588,,True,97,17:00,0
Tribeca - Botanic Shop & Cafe,42.0072144,21.4113588,,True,97,18:00,0
Tribeca - Botanic Shop & Cafe,42.0072144,21.4113588,,True,97,19:00,0
Tribeca - Botanic Shop & Cafe,42.0072144,21.4113588,,True,97,20:00,0
Tribeca - Botanic Shop & Cafe,42.0072144,21.4113588,,True,97,21:00,0
Tribeca - Botanic Shop & Cafe,42.0072144,21.4113588,,True,97,22:00,0
Tribeca - Botanic Shop & Cafe,42.0072144,21.4113588,,True,97,23:00,0
Форца,41.9996349,21.3908,"{'Mo-Su': '00:00-01:00, Su-Th 08:00-24:00'}",True,104,00:00,0
Форца,41.9996349,21.3908,"{'Mo-Su': '00:00-01:00, Su-Th 08:00-24:00'}",True,104,01:00,0
Форца,41.9996349,21.3908,"{'Mo-Su': '00:00-01:00, Su-Th 08:00-24:00'}",True,104,02:00,0
Форца,41.9996349,21.3908,"{'Mo-Su': '00:00-01:00, Su-Th 08:00-24:00'}",True,104,03:00,0
Форца,41.9996349,21.3908,"{'Mo-Su': '00:00-01:00, Su-Th 08:00-24:00'}",True,104,04:00,0
Форца,41.9996349,21.3908,"{'Mo-Su': '00:00-01:00, Su-Th 08:00-24:00'}",True,104,05:00,0
Форца,41.9996349,21.3908,"{'Mo-Su': '00:00-01:00, Su-Th 08:00-24:00'}",True,104,06:00,0
Форца,41.9996349,21.3908,"{'Mo-Su': '00:00-01:00, Su-Th 08:00-24:00'}",True,104,07:00,0
Форца,41.9996349,21.3908,"{'Mo-Su': '00:00-01:00, Su-Th 08:00-24:00'}",True,104,08:00,0
Форца,41.9996349,21.3908,"{'Mo-Su': '00:00-01:00, Su-Th 08:00-24:00'}",True,104,09:00,0
Форца,41.9996349,21.3908,"{'Mo-Su': '00:00-01:00, Su-Th 08:00-24:00'}",True,104,10:00,0
Форца,41.9996349,21.3908,"{'Mo-Su': '00:00-01:00, Su-Th 08:00-24:00'}",True,104,11:00,0
Форца,41.9996349,21.3908,"{'Mo-Su': '00:00-01:00, Su-Th 08:00-24:00'}",True,104,12:00,0
Форца,41.9996349,21.3908,"{'Mo-Su': '00:00-01:00, Su-Th 08:00-24:00'}",True,104,13:00,0
Форца,41.9996349,21.3908,"{'Mo-Su': '00:00-01:00, Su-Th 08:00-24:00'}",True,104,14:00,0
Форца,41.9996349,21.3908,"{'Mo-Su': '00:00-01:00, Su-Th 08:00-24:00'}",True,104,15:00,0
Форца,41.9996349,21.3908,"{'Mo-Su': '00:00-01:00, Su-Th 08:00-24:00'}",True,104,16:00,0
Форца,41.9996349,21.3908,"{'Mo-Su': '00:00-01:00, Su-Th 08:00-24:00'}",True,104,17:00,0
Форца,41.9996349,21.3908,"{'Mo-Su': '00:00-01:00, Su-Th 08:00-24:00'}",True,104,18:00,0
Форца,41.9996349,21.3908,"{'Mo-Su': '00:00-01:00, Su-Th 08:00-24:00'}",True,104,19:00,0
Форца,41.9996349,21.3908,"{'Mo-Su': '00:00-01:00, Su-Th 08:00-24:00'}",True,104,20:00,0
Форца,41.9996349,21.3908,"{'Mo-Su': '00:00-01:00, Su-Th 08:00-24:00'}",True,104,21:00,0
Форца,41.9996349,21.3908,"{'Mo-Su': '00:00-01:00, Su-Th 08:00-24:00'}",True,104,22:00,0
Форца,41.9996349,21.3908,"{'Mo-Su': '00:00-01:00, Su-Th 08:00-24:00'}",True,104,23:00,0
Излет,41.9971391,21.4242939,,False,47,00:00,0
Излет,41.9971391,21.4242939,,False,47,01:00,0
Излет,41.9971391,21.4242939,,False,47,02:00,0
Излет,41.9971391,21.4242939,,False,47,03:00,0
Излет,41.9971391,21.4242939,,False,47,04:00,0
Излет,41.9971391,21.4242939,,False,47,05:00,0
Излет,41.9971391,21.4242939,,False,47,06:00,0
Излет,41.9971391,21.4242939,,False,47,07:00,0
Излет,41.9971391,21.4242939,,False,47,08:00,0
Излет,41.9971391,21.4242939,,False,47,09:00,0
Излет,41.9971391,21.4242939,,False,47,10:00,0
Излет,41.9971391,21.4242939,,False,47,11:00,0
Излет,41.9971391,21.4242939,,False,47,12:00,0
Излет,41.9971391,21.4242939,,False,47,13:00,0
Излет,41.9971391,21.4242939,,False,47,14:00,0
Излет,41.9971391,21.4242939,,False,47,15:00,0
Излет,41.9971391,21.4242939,,False,47,16:00,0
Излет,41.9971391,21.4242939,,False,47,17:00,0
Излет,41.9971391,21.4242939,,False,47,18:00,0
Излет,41.9971391,21.4242939,,False,47,19:00,0
Излет,41.9971391,21.4242939,,False,47,20:00,0
Излет,41.9971391,21.4242939,,False,47,21:00,0
Излет,41.9971391,21.4242939,,False,47,22:00,0
Излет,41.9971391,21.4242939,,False,47,23:00,0
Мартини,42.0031973,21.400023,,False,327,00:00,0
Мартини,42.0031973,21.400023,,False,327,01:00,0
Мартини,42.0031973,21.400023,,False,327,02:00,0
Мартини,42.0031973,21.400023,,False,327,03:00,0
Мартини,42.0031973,21.400023,,False,327,04:00,0
Мартини,42.0031973,21.400023,,False,327,05:00,0
Мартини,42.0031973,21.400023,,False,327,06:00,0
Мартини,42.0031973,21.400023,,False,327,07:00,0
Мартини,42.0031973,21.400023,,False,327,08:00,0
Мартини,42.0031973,21.400023,,False,327,09:00,0
Мартини,42.0031973,21.400023,,False,327,10:00,0
Мартини,42.0031973,21.400023,,False,327,11:00,0
Мартини,42.0031973,21.400023,,False,327,12:00,0
Мартини,42.0031973,21.400023,,False,327,13:00,0
Мартини,42.0031973,21.400023,,False,327,14:00,0
Мартини,42.0031973,21.400023,,False,327,15:00,0
Мартини,42.0031973,21.400023,,False,327,16:00,0
Мартини,42.0031973,21.400023,,False,327,17:00,0
Мартини,42.0031973,21.400023,,False,327,18:00,0
Мартини,42.0031973,21.400023,,False,327,19:00,0
Мартини,42.0031973,21.400023,,False,327,20:00,0
Мартини,42.0031973,21.400023,,False,327,21:00,0
Мартини,42.0031973,21.400023,,False,327,22:00,0
Мартини,42.0031973,21.400023,,False,327,23:00,0
Синдикат,42.0013472,21.4224136,{'Mo-Su': '09:00-01:00'},False,7,00:00,0
Синдикат,42.0013472,21.4224136,{'Mo-Su': '09:00-01:00'},False,7,01:00,0
Синдикат,42.0013472,21.4224136,{'Mo-Su': '09:00-01:00'},False,7,02:00,0
Синдикат,42.0013472,21.4224136,{'Mo-Su': '09:00-01:00'},False,7,03:00,0
Синдикат,42.0013472,21.4224136,{'Mo-Su': '09:00-01:00'},False,7,04:00,0
Синдикат,42.0013472,21.4224136,{'Mo-Su': '09:00-01:00'},False,7,05:00,0
Синдикат,42.0013472,21.4224136,{'Mo-Su': '09:00-01:00'},False,7,06:00,0
Синдикат,42.0013472,21.4224136,{'Mo-Su': '09:00-01:00'},False,7,07:00,0
Синдикат,42.0013472,21.4224136,{'Mo-Su': '09:00-01:00'},False,7,08:00,0
Синдикат,42.0013472,21.4224136,{'Mo-Su': '09:00-01:00'},False,7,09:00,0
Синдикат,42.0013472,21.4224136,{'Mo-Su': '09:00-01:00'},False,7,10:00,0
Синдикат,42.0013472,21.4224136,{'Mo-Su': '09:00-01:00'},False,7,11:00,0
Синдикат,42.0013472,21.4224136,{'Mo-Su': '09:00-01:00'},False,7,12:00,0
Синдикат,42.0013472,21.4224136,{'Mo-Su': '09:00-01:00'},False,7,13:00,0
Синдикат,42.0013472,21.4224136,{'Mo-Su': '09:00-01:00'},False,7,14:00,0
Синдикат,42.0013472,21.4224136,{'Mo-Su': '09:00-01:00'},False,7,15:00,0
Синдикат,42.0013472,21.4224136,{'Mo-Su': '09:00-01:00'},False,7,16:00,0
Синдикат,42.0013472,21.4224136,{'Mo-Su': '09:00-01:00'},False,7,17:00,0
Синдикат,42.0013472,21.4224136,{'Mo-Su': '09:00-01:00'},False,7,18:00,0
Синдикат,42.0013472,21.4224136,{'Mo-Su': '09:00-01:00'},False,7,19:00,0
Синдикат,42.0013472,21.4224136,{'Mo-Su': '09:00-01:00'},False,7,20:00,0
Синдикат,42.0013472,21.4224136,{'Mo-Su': '09:00-01:00'},False,7,21:00,0
Синдикат,42.0013472,21.4224136,{'Mo-Su': '09:00-01:00'},False,7,22:00,0
Синдикат,42.0013472,21.4224136,{'Mo-Su': '09:00-01:00'},False,7,23:00,0
Krug,41.9998129,21.4229272,"{'PH,Mo-Su': '09:00-24:00'}",False,359,00:00,0
Krug,41.9998129,21.4229272,"{'PH,Mo-Su': '09:00-24:00'}",False,359,01:00,0
Krug,41.9998129,21.4229272,"{'PH,Mo-Su': '09:00-24:00'}",False,359,02:00,0
Krug,41.9998129,21.4229272,"{'PH,Mo-Su': '09:00-24:00'}",False,359,03:00,0
Krug,41.9998129,21.4229272,"{'PH,Mo-Su': '09:00-24:00'}",False,359,04:00,0
Krug,41.9998129,21.4229272,"{'PH,Mo-Su': '09:00-24:00'}",False,359,05:00,0
Krug,41.9998129,21.4229272,"{'PH,Mo-Su': '09:00-24:00'}",False,359,06:00,0
Krug,41.9998129,21.4229272,"{'PH,Mo-Su': '09:00-24:00'}",False,359,07:00,0
Krug,41.9998129,21.4229272,"{'PH,Mo-Su': '09:00-24:00'}",False,359,08:00,0
Krug,41.9998129,21.4229272,"{'PH,Mo-Su': '09:00-24:00'}",False,359,09:00,0
Krug,41.9998129,21.4229272,"{'PH,Mo-Su': '09:00-24:00'}",False,359,10:00,0
Krug,41.9998129,21.4229272,"{'PH,Mo-Su': '09:00-24:00'}",False,359,11:00,0
Krug,41.9998129,21.4229272,"{'PH,Mo-Su': '09:00-24:00'}",False,359,12:00,0
Krug,41.9998129,21.4229272,"{'PH,Mo-Su': '09:00-24:00'}",False,359,13:00,0
Krug,41.9998129,21.4229272,"{'PH,Mo-Su': '09:00-24:00'}",False,359,14:00,0
Krug,41.9998129,21.4229272,"{'PH,Mo-Su': '09:00-24:00'}",False,359,15:00,0
Krug,41.9998129,21.4229272,"{'PH,Mo-Su': '09:00-24:00'}",False,359,16:00,0
Krug,41.9998129,21.4229272,"{'PH,Mo-Su': '09:00-24:00'}",False,359,17:00,0
Krug,41.9998129,21.4229272,"{'PH,Mo-Su': '09:00-24:00'}",False,359,18:00,0
Krug,41.9998129,21.4229272,"{'PH,Mo-Su': '09:00-24:00'}",False,359,19:00,0
Krug,41.9998129,21.4229272,"{'PH,Mo-Su': '09:00-24:00'}",False,359,20:00,0
Krug,41.9998129,21.4229272,"{'PH,Mo-Su': '09:00-24:00'}",False,359,21:00,0
Krug,41.9998129,21.4229272,"{'PH,Mo-Su': '09:00-24:00'}",False,359,22:00,0
Krug,41.9998129,21.4229272,"{'PH,Mo-Su': '09:00-24:00'}",False,359,23:00,0
My Space cafe,41.9928074,21.4209424,{'Mo-Su': '08:00-01:00'},False,188,00:00,0
My Space cafe,41.9928074,21.4209424,{'Mo-Su': '08:00-01:00'},False,188,01:00,0
My Space cafe,41.9928074,21.4209424,{'Mo-Su': '08:00-01:00'},False,188,02:00,0
My Space cafe,41.9928074,21.4209424,{'Mo-Su': '08:00-01:00'},False,188,03:00,0
My Space cafe,41.9928074,21.4209424,{'Mo-Su': '08:00-01:00'},False,188,04:00,0
My Space cafe,41.9928074,21.4209424,{'Mo-Su': '08:00-01:00'},False,188,05:00,0
My Space cafe,41.9928074,21.4209424,{'Mo-Su': '08:00-01:00'},False,188,06:00,0
My Space cafe,41.9928074,21.4209424,{'Mo-Su': '08:00-01:00'},False,188,07:00,0
My Space cafe,41.9928074,21.4209424,{'Mo-Su': '08:00-01:00'},False,188,08:00,0
My Space cafe,41.9928074,21.4209424,{'Mo-Su': '08:00-01:00'},False,188,09:00,0
My Space cafe,41.9928074,21.4209424,{'Mo-Su': '08:00-01:00'},False,188,10:00,0
My Space cafe,41.9928074,21.4209424,{'Mo-Su': '08:00-01:00'},False,188,11:00,0
My Space cafe,41.9928074,21.4209424,{'Mo-Su': '08:00-01:00'},False,188,12:00,0
My Space cafe,41.9928074,21.4209424,{'Mo-Su': '08:00-01:00'},False,188,13:00,0
My Space cafe,41.9928074,21.4209424,{'Mo-Su': '08:00-01:00'},False,188,14:00,0
My Space cafe,41.9928074,21.4209424,{'Mo-Su': '08:00-01:00'},False,188,15:00,0
My Space cafe,41.9928074,21.4209424,{'Mo-Su': '08:00-01:00'},False,188,16:00,0
My Space cafe,41.9928074,21.4209424,{'Mo-Su': '08:00-01:00'},False,188,17:00,0
My Space cafe,41.9928074,21.4209424,{'Mo-Su': '08:00-01:00'},False,188,18:00,0
My Space cafe,41.9928074,21.4209424,{'Mo-Su': '08:00-01:00'},False,188,19:00,0
My Space cafe,41.9928074,21.4209424,{'Mo-Su': '08:00-01:00'},False,188,20:00,0
My Space cafe,41.9928074,21.4209424,{'Mo-Su': '08:00-01:00'},False,188,21:00,0
My Space cafe,41.9928074,21.4209424,{'Mo-Su': '08:00-01:00'},False,188,22:00,0
My Space cafe,41.9928074,21.4209424,{'Mo-Su': '08:00-01:00'},False,188,23:00,0
Драмски Кафе Бар,42.0022389,21.4074756,,True,274,00:00,0
Драмски Кафе Бар,42.0022389,21.4074756,,True,274,01:00,0
Драмски Кафе Бар,42.0022389,21.4074756,,True,274,02:00,0
Драмски Кафе Бар,42.0022389,21.4074756,,True,274,03:00,0
Драмски Кафе Бар,42.0022389,21.4074756,,True,274,04:00,0
Драмски Кафе Бар,42.0022389,21.4074756,,True,274,05:00,0
Драмски Кафе Бар,42.0022389,21.4074756,,True,274,06:00,0
Драмски Кафе Бар,42.0022389,21.4074756,,True,274,07:00,0
Драмски Кафе Бар,42.0022389,21.4074756,,True,274,08:00,0
Драмски Кафе Бар,42.0022389,21.4074756,,True,274,09:00,0
Драмски Кафе Бар,42.0022389,21.4074756,,True,274,10:00,0
Драмски Кафе Бар,42.0022389,21.4074756,,True,274,11:00,0
Драмски Кафе Бар,42.0022389,21.4074756,,True,274,12:00,0
Драмски Кафе Бар,42.0022389,21.4074756,,True,274,13:00,0
Драмски Кафе Бар,42.0022389,21.4074756,,True,274,14:00,0
Драмски Кафе Бар,42.0022389,21.4074756,,True,274,15:00,0
Драмски Кафе Бар,42.0022389,21.4074756,,True,274,16:00,0
Драмски Кафе Бар,42.0022389,21.4074756,,True,274,17:00,0
Драмски Кафе Бар,42.0022389,21.4074756,,True,274,18:00,0
Драмски Кафе Бар,42.0022389,21.4074756,,True,274,19:00,0
Драмски Кафе Бар,42.0022389,21.4074756,,True,274,20:00,0
Драмски Кафе Бар,42.0022389,21.4074756,,True,274,21:00,0
Драмски Кафе Бар,42.0022389,21.4074756,,True,274,22:00,0
Драмски Кафе Бар,42.0022389,21.4074756,,True,274,23:00,0
Greenhill,41.9831659,21.3796775,,False,145,00:00,0
Greenhill,41.9831659,21.3796775,,False,145,01:00,0
Greenhill,41.9831659,21.3796775,,False,145,02:00,0
Greenhill,41.9831659,21.3796775,,False,145,03:00,0
Greenhill,41.9831659,21.3796775,,False,145,04:00,0
Greenhill,41.9831659,21.3796775,,False,145,05:00,0
Greenhill,41.9831659,21.3796775,,False,145,06:00,0
Greenhill,41.9831659,21.3796775,,False,145,07:00,0
Greenhill,41.9831659,21.3796775,,False,145,08:00,0
Greenhill,41.9831659,21.3796775,,False,145,09:00,0
Greenhill,41.9831659,21.3796775,,False,145,10:00,0
Greenhill,41.9831659,21.3796775,,False,145,11:00,0
Greenhill,41.9831659,21.3796775,,False,145,12:00,0
Greenhill,41.9831659,21.3796775,,False,145,13:00,0
Greenhill,41.9831659,21.3796775,,False,145,14:00,0
Greenhill,41.9831659,21.3796775,,False,145,15:00,0
Greenhill,41.9831659,21.3796775,,False,145,16:00,0
Greenhill,41.9831659,21.3796775,,False,145,17:00,0
Greenhill,41.9831659,21.3796775,,False,145,18:00,0
Greenhill,41.9831659,21.3796775,,False,145,19:00,0
Greenhill,41.9831659,21.3796775,,False,145,20:00,0
Greenhill,41.9831659,21.3796775,,False,145,21:00,0
Greenhill,41.9831659,21.3796775,,False,145,22:00,0
Greenhill,41.9831659,21.3796775,,False,145,23:00,0
Makka,41.99592,21.4246403,,False,44,00:00,0
Makka,41.99592,21.4246403,,False,44,01:00,0
Makka,41.99592,21.4246403,,False,44,02:00,0
Makka,41.99592,21.4246403,,False,44,03:00,0
Makka,41.99592,21.4246403,,False,44,04:00,0
Makka,41.99592,21.4246403,,False,44,05:00,0
Makka,41.99592,21.4246403,,False,44,06:00,0
Makka,41.99592,21.4246403,,False,44,07:00,0
Makka,41.99592,21.4246403,,False,44,08:00,0
Makka,41.99592,21.4246403,,False,44,09:00,0
Makka,41.99592,21.4246403,,False,44,10:00,0
Makka,41.99592,21.4246403,,False,44,11:00,0
Makka,41.99592,21.4246403,,False,44,12:00,0
Makka,41.99592,21.4246403,,False,44,13:00,0
Makka,41.99592,21.4246403,,False,44,14:00,0
Makka,41.99592,21.4246403,,False,44,15:00,0
Makka,41.99592,21.4246403,,False,44,16:00,0
Makka,41.99592,21.4246403,,False,44,17:00,0
Makka,41.99592,21.4246403,,False,44,18:00,0
Makka,41.99592,21.4246403,,False,44,19:00,0
Makka,41.99592,21.4246403,,False,44,20:00,0
Makka,41.99592,21.4246403,,False,44,21:00,0
Makka,41.99592,21.4246403,,False,44,22:00,0
Makka,41.99592,21.4246403,,False,44,23:00,0
Broz Cafe,42.0001334,21.41682,,False,199,00:00,0
Broz Cafe,42.0001334,21.41682,,False,199,01:00,0
Broz Cafe,42.0001334,21.41682,,False,199,02:00,0
Broz Cafe,42.0001334,21.41682,,False,199,03:00,0
Broz Cafe,42.0001334,21.41682,,False,199,04:00,0
Broz Cafe,42.0001334,21.41682,,False,199,05:00,0
Broz Cafe,42.0001334,21.41682,,False,199,06:00,0
Broz Cafe,42.0001334,21.41682,,False,199,07:00,0
Broz Cafe,42.0001334,21.41682,,False,199,08:00,0
Broz Cafe,42.0001334,21.41682,,False,199,09:00,0
Broz Cafe,42.0001334,21.41682,,False,199,10:00,0
Broz Cafe,42.0001334,21.41682,,False,199,11:00,0
Broz Cafe,42.0001334,21.41682,,False,199,12:00,0
Broz Cafe,42.0001334,21.41682,,False,199,13:00,0
Broz Cafe,42.0001334,21.41682,,False,199,14:00,0
Broz Cafe,42.0001334,21.41682,,False,199,15:00,0
Broz Cafe,42.0001334,21.41682,,False,199,16:00,0
Broz Cafe,42.0001334,21.41682,,False,199,17:00,0
Broz Cafe,42.0001334,21.41682,,False,199,18:00,0
Broz Cafe,42.0001334,21.41682,,False,199,19:00,0
Broz Cafe,42.0001334,21.41682,,False,199,20:00,0
Broz Cafe,42.0001334,21.41682,,False,199,21:00,0
Broz Cafe,42.0001334,21.41682,,False,199,22:00,0
Broz Cafe,42.0001334,21.41682,,False,199,23:00,0
Кафе Кино Карпош,42.0011509,21.4175412,"{'Mo-Th': '08:00-00:00', '': 'Su 09:30-01:00'}",False,45,00:00,0
Кафе Кино Карпош,42.0011509,21.4175412,"{'Mo-Th': '08:00-00:00', '': 'Su 09:30-01:00'}",False,45,01:00,0
Кафе Кино Карпош,42.0011509,21.4175412,"{'Mo-Th': '08:00-00:00', '': 'Su 09:30-01:00'}",False,45,02:00,0
Кафе Кино Карпош,42.0011509,21.4175412,"{'Mo-Th': '08:00-00:00', '': 'Su 09:30-01:00'}",False,45,03:00,0
Кафе Кино Карпош,42.0011509,21.4175412,"{'Mo-Th': '08:00-00:00', '': 'Su 09:30-01:00'}",False,45,04:00,0
Кафе Кино Карпош,42.0011509,21.4175412,"{'Mo-Th': '08:00-00:00', '': 'Su 09:30-01:00'}",False,45,05:00,0
Кафе Кино Карпош,42.0011509,21.4175412,"{'Mo-Th': '08:00-00:00', '': 'Su 09:30-01:00'}",False,45,06:00,0
Кафе Кино Карпош,42.0011509,21.4175412,"{'Mo-Th': '08:00-00:00', '': 'Su 09:30-01:00'}",False,45,07:00,0
Кафе Кино Карпош,42.0011509,21.4175412,"{'Mo-Th': '08:00-00:00', '': 'Su 09:30-01:00'}",False,45,08:00,0
Кафе Кино Карпош,42.0011509,21.4175412,"{'Mo-Th': '08:00-00:00', '': 'Su 09:30-01:00'}",False,45,09:00,0
Кафе Кино Карпош,42.0011509,21.4175412,"{'Mo-Th': '08:00-00:00', '': 'Su 09:30-01:00'}",False,45,10:00,0
Кафе Кино Карпош,42.0011509,21.4175412,"{'Mo-Th': '08:00-00:00', '': 'Su 09:30-01:00'}",False,45,11:00,0
Кафе Кино Карпош,42.0011509,21.4175412,"{'Mo-Th': '08:00-00:00', '': 'Su 09:30-01:00'}",False,45,12:00,0
Кафе Кино Карпош,42.0011509,21.4175412,"{'Mo-Th': '08:00-00:00', '': 'Su 09:30-01:00'}",False,45,13:00,0
Кафе Кино Карпош,42.0011509,21.4175412,"{'Mo-Th': '08:00-00:00', '': 'Su 09:30-01:00'}",False,45,14:00,0
Кафе Кино Карпош,42.0011509,21.4175412,"{'Mo-Th': '08:00-00:00', '': 'Su 09:30-01:00'}",False,45,15:00,0
Кафе Кино Карпош,42.0011509,21.4175412,"{'Mo-Th': '08:00-00:00', '': 'Su 09:30-01:00'}",False,45,16:00,0
Кафе Кино Карпош,42.0011509,21.4175412,"{'Mo-Th': '08:00-00:00', '': 'Su 09:30-01:00'}",False,45,17:00,0
Кафе Кино Карпош,42.0011509,21.4175412,"{'Mo-Th': '08:00-00:00', '': 'Su 09:30-01:00'}",False,45,18:00,0
Кафе Кино Карпош,42.0011509,21.4175412,"{'Mo-Th': '08:00-00:00', '': 'Su 09:30-01:00'}",False,45,19:00,0
Кафе Кино Карпош,42.0011509,21.4175412,"{'Mo-Th': '08:00-00:00', '': 'Su 09:30-01:00'}",False,45,20:00,0
Кафе Кино Карпош,42.0011509,21.4175412,"{'Mo-Th': '08:00-00:00', '': 'Su 09:30-01:00'}",False,45,21:00,0
Кафе Кино Карпош,42.0011509,21.4175412,"{'Mo-Th': '08:00-00:00', '': 'Su 09:30-01:00'}",False,45,22:00,0
Кафе Кино Карпош,42.0011509,21.4175412,"{'Mo-Th': '08:00-00:00', '': 'Su 09:30-01:00'}",False,45,23:00,0
Revija,42.0034224,21.398346,,True,98,00:00,0
Revija,42.0034224,21.398346,,True,98,01:00,0
Revija,42.0034224,21.398346,,True,98,02:00,0
Revija,42.0034224,21.398346,,True,98,03:00,0
Revija,42.0034224,21.398346,,True,98,04:00,0
Revija,42.0034224,21.398346,,True,98,05:00,0
Revija,42.0034224,21.398346,,True,98,06:00,0
Revija,42.0034224,21.398346,,True,98,07:00,0
Revija,42.0034224,21.398346,,True,98,08:00,0
Revija,42.0034224,21.398346,,True,98,09:00,0
Revija,42.0034224,21.398346,,True,98,10:00,0
Revija,42.0034224,21.398346,,True,98,11:00,0
Revija,42.0034224,21.398346,,True,98,12:00,0
Revija,42.0034224,21.398346,,True,98,13:00,0
Revija,42.0034224,21.398346,,True,98,14:00,0
Revija,42.0034224,21.398346,,True,98,15:00,0
Revija,42.0034224,21.398346,,True,98,16:00,0
Revija,42.0034224,21.398346,,True,98,17:00,0
Revija,42.0034224,21.398346,,True,98,18:00,0
Revija,42.0034224,21.398346,,True,98,19:00,0
Revija,42.0034224,21.398346,,True,98,20:00,0
Revija,42.0034224,21.398346,,True,98,21:00,0
Revija,42.0034224,21.398346,,True,98,22:00,0
Revija,42.0034224,21.398346,,True,98,23:00,0
Република,41.9915282,21.4504664,"{'Su-Th': '08:00-24:00, Fr,Sa 08:00-01:00'}",False,234,00:00,0
Република,41.9915282,21.4504664,"{'Su-Th': '08:00-24:00, Fr,Sa 08:00-01:00'}",False,234,01:00,0
Република,41.9915282,21.4504664,"{'Su-Th': '08:00-24:00, Fr,Sa 08:00-01:00'}",False,234,02:00,0
Република,41.9915282,21.4504664,"{'Su-Th': '08:00-24:00, Fr,Sa 08:00-01:00'}",False,234,03:00,0
Република,41.9915282,21.4504664,"{'Su-Th': '08:00-24:00, Fr,Sa 08:00-01:00'}",False,234,04:00,0
Република,41.9915282,21.4504664,"{'Su-Th': '08:00-24:00, Fr,Sa 08:00-01:00'}",False,234,05:00,0
Република,41.9915282,21.4504664,"{'Su-Th': '08:00-24:00, Fr,Sa 08:00-01:00'}",False,234,06:00,0
Република,41.9915282,21.4504664,"{'Su-Th': '08:00-24:00, Fr,Sa 08:00-01:00'}",False,234,07:00,0
Република,41.9915282,21.4504664,"{'Su-Th': '08:00-24:00, Fr,Sa 08:00-01:00'}",False,234,08:00,0
Република,41.9915282,21.4504664,"{'Su-Th': '08:00-24:00, Fr,Sa 08:00-01:00'}",False,234,09:00,0
Република,41.9915282,21.4504664,"{'Su-Th': '08:00-24:00, Fr,Sa 08:00-01:00'}",False,234,10:00,0
Република,41.9915282,21.4504664,"{'Su-Th': '08:00-24:00, Fr,Sa 08:00-01:00'}",False,234,11:00,0
Република,41.9915282,21.4504664,"{'Su-Th': '08:00-24:00, Fr,Sa 08:00-01:00'}",False,234,12:00,0
Република,41.9915282,21.4504664,"{'Su-Th': '08:00-24:00, Fr,Sa 08:00-01:00'}",False,234,13:00,0
Република,41.9915282,21.4504664,"{'Su-Th': '08:00-24:00, Fr,Sa 08:00-01:00'}",False,234,14:00,0
Република,41.9915282,21.4504664,"{'Su-Th': '08:00-24:00, Fr,Sa 08:00-01:00'}",False,234,15:00,0
Република,41.9915282,21.4504664,"{'Su-Th': '08:00-24:00, Fr,Sa 08:00-01:00'}",False,234,16:00,0
Република,41.9915282,21.4504664,"{'Su-Th': '08:00-24:00, Fr,Sa 08:00-01:00'}",False,234,17:00,0
Република,41.9915282,21.4504664,"{'Su-Th': '08:00-24:00, Fr,Sa 08:00-01:00'}",False,234,18:00,0
Република,41.9915282,21.4504664,"{'Su-Th': '08:00-24:00, Fr,Sa 08:00-01:00'}",False,234,19:00,0
Република,41.9915282,21.4504664,"{'Su-Th': '08:00-24:00, Fr,Sa 08:00-01:00'}",False,234,20:00,0
Република,41.9915282,21.4504664,"{'Su-Th': '08:00-24:00, Fr,Sa 08:00-01:00'}",False,234,21:00,0
Република,41.9915282,21.4504664,"{'Su-Th': '08:00-24:00, Fr,Sa 08:00-01:00'}",False,234,22:00,0
Република,41.9915282,21.4504664,"{'Su-Th': '08:00-24:00, Fr,Sa 08:00-01:00'}",False,234,23:00,0
Аристократ кафе,42.0026334,21.4644018,,False,145,00:00,0
Аристократ кафе,42.0026334,21.4644018,,False,145,01:00,0
Аристократ кафе,42.0026334,21.4644018,,False,145,02:00,0
Аристократ кафе,42.0026334,21.4644018,,False,145,03:00,0
Аристократ кафе,42.0026334,21.4644018,,False,145,04:00,0
Аристократ кафе,42.0026334,21.4644018,,False,145,05:00,0
Аристократ кафе,42.0026334,21.4644018,,False,145,06:00,0
Аристократ кафе,42.0026334,21.4644018,,False,145,07:00,0
Аристократ кафе,42.0026334,21.4644018,,False,145,08:00,0
Аристократ кафе,42.0026334,21.4644018,,False,145,09:00,0
Аристократ кафе,42.0026334,21.4644018,,False,145,10:00,0
Аристократ кафе,42.0026334,21.4644018,,False,145,11:00,0
Аристократ кафе,42.0026334,21.4644018,,False,145,12:00,0
Аристократ кафе,42.0026334,21.4644018,,False,145,13:00,0
Аристократ кафе,42.0026334,21.4644018,,False,145,14:00,0
Аристократ кафе,42.0026334,21.4644018,,False,145,15:00,0
Аристократ кафе,42.0026334,21.4644018,,False,145,16:00,0
Аристократ кафе,42.0026334,21.4644018,,False,145,17:00,0
Аристократ кафе,42.0026334,21.4644018,,False,145,18:00,0
Аристократ кафе,42.0026334,21.4644018,,False,145,19:00,0
Аристократ кафе,42.0026334,21.4644018,,False,145,20:00,0
Аристократ кафе,42.0026334,21.4644018,,False,145,21:00,0
Аристократ кафе,42.0026334,21.4644018,,False,145,22:00,0
Аристократ кафе,42.0026334,21.4644018,,False,145,23:00,0
Top Foxx,41.9896704,21.4768437,"{'Su-Fr': '11:00-24:00, Sa 11:00-01:00'}",False,300,00:00,0
Top Foxx,41.9896704,21.4768437,"{'Su-Fr': '11:00-24:00, Sa 11:00-01:00'}",False,300,01:00,0
Top Foxx,41.9896704,21.4768437,"{'Su-Fr': '11:00-24:00, Sa 11:00-01:00'}",False,300,02:00,0
Top Foxx,41.9896704,21.4768437,"{'Su-Fr': '11:00-24:00, Sa 11:00-01:00'}",False,300,03:00,0
Top Foxx,41.9896704,21.4768437,"{'Su-Fr': '11:00-24:00, Sa 11:00-01:00'}",False,300,04:00,0
Top Foxx,41.9896704,21.4768437,"{'Su-Fr': '11:00-24:00, Sa 11:00-01:00'}",False,300,05:00,0
Top Foxx,41.9896704,21.4768437,"{'Su-Fr': '11:00-24:00, Sa 11:00-01:00'}",False,300,06:00,0
Top Foxx,41.9896704,21.4768437,"{'Su-Fr': '11:00-24:00, Sa 11:00-01:00'}",False,300,07:00,0
Top Foxx,41.9896704,21.4768437,"{'Su-Fr': '11:00-24:00, Sa 11:00-01:00'}",False,300,08:00,0
Top Foxx,41.9896704,21.4768437,"{'Su-Fr': '11:00-24:00, Sa 11:00-01:00'}",False,300,09:00,0
Top Foxx,41.9896704,21.4768437,"{'Su-Fr': '11:00-24:00, Sa 11:00-01:00'}",False,300,10:00,0
Top Foxx,41.9896704,21.4768437,"{'Su-Fr': '11:00-24:00, Sa 11:00-01:00'}",False,300,11:00,0
Top Foxx,41.9896704,21.4768437,"{'Su-Fr': '11:00-24:00, Sa 11:00-01:00'}",False,300,12:00,0
Top Foxx,41.9896704,21.4768437,"{'Su-Fr': '11:00-24:00, Sa 11:00-01:00'}",False,300,13:00,0
Top Foxx,41.9896704,21.4768437,"{'Su-Fr': '11:00-24:00, Sa 11:00-01:00'}",False,300,14:00,0
Top Foxx,41.9896704,21.4768437,"{'Su-Fr': '11:00-24:00, Sa 11:00-01:00'}",False,300,15:00,0
Top Foxx,41.9896704,21.4768437,"{'Su-Fr': '11:00-24:00, Sa 11:00-01:00'}",False,300,16:00,0
Top Foxx,41.9896704,21.4768437,"{'Su-Fr': '11:00-24:00, Sa 11:00-01:00'}",False,300,17:00,0
Top Foxx,41.9896704,21.4768437,"{'Su-Fr': '11:00-24:00, Sa 11:00-01:00'}",False,300,18:00,0
Top Foxx,41.9896704,21.4768437,"{'Su-Fr': '11:00-24:00, Sa 11:00-01:00'}",False,300,19:00,0
Top Foxx,41.9896704,21.4768437,"{'Su-Fr': '11:00-24:00, Sa 11:00-01:00'}",False,300,20:00,0
Top Foxx,41.9896704,21.4768437,"{'Su-Fr': '11:00-24:00, Sa 11:00-01:00'}",False,300,21:00,0
Top Foxx,41.9896704,21.4768437,"{'Su-Fr': '11:00-24:00, Sa 11:00-01:00'}",False,300,22:00,0
Top Foxx,41.9896704,21.4768437,"{'Su-Fr': '11:00-24:00, Sa 11:00-01:00'}",False,300,23:00,0
Кафе Мамбо,41.9894549,21.4758795,"{'Mo-Fr': '09:00-21:00', '': 'Sa,Su 09:00-24:00'}",False,87,00:00,0
Кафе Мамбо,41.9894549,21.4758795,"{'Mo-Fr': '09:00-21:00', '': 'Sa,Su 09:00-24:00'}",False,87,01:00,0
Кафе Мамбо,41.9894549,21.4758795,"{'Mo-Fr': '09:00-21:00', '': 'Sa,Su 09:00-24:00'}",False,87,02:00,0
Кафе Мамбо,41.9894549,21.4758795,"{'Mo-Fr': '09:00-21:00', '': 'Sa,Su 09:00-24:00'}",False,87,03:00,0
Кафе Мамбо,41.9894549,21.4758795,"{'Mo-Fr': '09:00-21:00', '': 'Sa,Su 09:00-24:00'}",False,87,04:00,0
Кафе Мамбо,41.9894549,21.4758795,"{'Mo-Fr': '09:00-21:00', '': 'Sa,Su 09:00-24:00'}",False,87,05:00,0
Кафе Мамбо,41.9894549,21.4758795,"{'Mo-Fr': '09:00-21:00', '': 'Sa,Su 09:00-24:00'}",False,87,06:00,0
Кафе Мамбо,41.9894549,21.4758795,"{'Mo-Fr': '09:00-21:00', '': 'Sa,Su 09:00-24:00'}",False,87,07:00,0
Кафе Мамбо,41.9894549,21.4758795,"{'Mo-Fr': '09:00-21:00', '': 'Sa,Su 09:00-24:00'}",False,87,08:00,0
Кафе Мамбо,41.9894549,21.4758795,"{'Mo-Fr': '09:00-21:00', '': 'Sa,Su 09:00-24:00'}",False,87,09:00,0
Кафе Мамбо,41.9894549,21.4758795,"{'Mo-Fr': '09:00-21:00', '': 'Sa,Su 09:00-24:00'}",False,87,10:00,0
Кафе Мамбо,41.9894549,21.4758795,"{'Mo-Fr': '09:00-21:00', '': 'Sa,Su 09:00-24:00'}",False,87,11:00,0
Кафе Мамбо,41.9894549,21.4758795,"{'Mo-Fr': '09:00-21:00', '': 'Sa,Su 09:00-24:00'}",False,87,12:00,0
Кафе Мамбо,41.9894549,21.4758795,"{'Mo-Fr': '09:00-21:00', '': 'Sa,Su 09:00-24:00'}",False,87,13:00,0
Кафе Мамбо,41.9894549,21.4758795,"{'Mo-Fr': '09:00-21:00', '': 'Sa,Su 09:00-24:00'}",False,87,14:00,0
Кафе Мамбо,41.9894549,21.4758795,"{'Mo-Fr': '09:00-21:00', '': 'Sa,Su 09:00-24:00'}",False,87,15:00,0
Кафе Мамбо,41.9894549,21.4758795,"{'Mo-Fr': '09:00-21:00', '': 'Sa,Su 09:00-24:00'}",False,87,16:00,0
Кафе Мамбо,41.9894549,21.4758795,"{'Mo-Fr': '09:00-21:00', '': 'Sa,Su 09:00-24:00'}",False,87,17:00,0
Кафе Мамбо,41.9894549,21.4758795,"{'Mo-Fr': '09:00-21:00', '': 'Sa,Su 09:00-24:00'}",False,87,18:00,0
Кафе Мамбо,41.9894549,21.4758795,"{'Mo-Fr': '09:00-21:00', '': 'Sa,Su 09:00-24:00'}",False,87,19:00,0
Кафе Мамбо,41.9894549,21.4758795,"{'Mo-Fr': '09:00-21:00', '': 'Sa,Su 09:00-24:00'}",False,87,20:00,0
Кафе Мамбо,41.9894549,21.4758795,"{'Mo-Fr': '09:00-21:00', '': 'Sa,Su 09:00-24:00'}",False,87,21:00,0
Кафе Мамбо,41.9894549,21.4758795,"{'Mo-Fr': '09:00-21:00', '': 'Sa,Su 09:00-24:00'}",False,87,22:00,0
Кафе Мамбо,41.9894549,21.4758795,"{'Mo-Fr': '09:00-21:00', '': 'Sa,Su 09:00-24:00'}",False,87,23:00,0
Badu,42.0071574,21.3722969,,False,44,00:00,0
Badu,42.0071574,21.3722969,,False,44,01:00,0
Badu,42.0071574,21.3722969,,False,44,02:00,0
Badu,42.0071574,21.3722969,,False,44,03:00,0
Badu,42.0071574,21.3722969,,False,44,04:00,0
Badu,42.0071574,21.3722969,,False,44,05:00,0
Badu,42.0071574,21.3722969,,False,44,06:00,0
Badu,42.0071574,21.3722969,,False,44,07:00,0
Badu,42.0071574,21.3722969,,False,44,08:00,0
Badu,42.0071574,21.3722969,,False,44,09:00,0
Badu,42.0071574,21.3722969,,False,44,10:00,0
Badu,42.0071574,21.3722969,,False,44,11:00,0
Badu,42.0071574,21.3722969,,False,44,12:00,0
Badu,42.0071574,21.3722969,,False,44,13:00,0
Badu,42.0071574,21.3722969,,False,44,14:00,0
Badu,42.0071574,21.3722969,,False,44,15:00,0
Badu,42.0071574,21.3722969,,False,44,16:00,0
Badu,42.0071574,21.3722969,,False,44,17:00,0
Badu,42.0071574,21.3722969,,False,44,18:00,0
Badu,42.0071574,21.3722969,,False,44,19:00,0
Badu,42.0071574,21.3722969,,False,44,20:00,0
Badu,42.0071574,21.3722969,,False,44,21:00,0
Badu,42.0071574,21.3722969,,False,44,22:00,0
Badu,42.0071574,21.3722969,,False,44,23:00,0
Палма,41.9885984,21.4531326,,True,152,00:00,0
Палма,41.9885984,21.4531326,,True,152,01:00,0
Палма,41.9885984,21.4531326,,True,152,02:00,0
Палма,41.9885984,21.4531326,,True,152,03:00,0
Палма,41.9885984,21.4531326,,True,152,04:00,0
Палма,41.9885984,21.4531326,,True,152,05:00,0
Палма,41.9885984,21.4531326,,True,152,06:00,0
Палма,41.9885984,21.4531326,,True,152,07:00,0
Палма,41.9885984,21.4531326,,True,152,08:00,0
Палма,41.9885984,21.4531326,,True,152,09:00,0
Палма,41.9885984,21.4531326,,True,152,10:00,0
Палма,41.9885984,21.4531326,,True,152,11:00,0
Палма,41.9885984,21.4531326,,True,152,12:00,0
Палма,41.9885984,21.4531326,,True,152,13:00,0
Палма,41.9885984,21.4531326,,True,152,14:00,0
Палма,41.9885984,21.4531326,,True,152,15:00,0
Палма,41.9885984,21.4531326,,True,152,16:00,0
Палма,41.9885984,21.4531326,,True,152,17:00,0
Палма,41.9885984,21.4531326,,True,152,18:00,0
Палма,41.9885984,21.4531326,,True,152,19:00,0
Палма,41.9885984,21.4531326,,True,152,20:00,0
Палма,41.9885984,21.4531326,,True,152,21:00,0
Палма,41.9885984,21.4531326,,True,152,22:00,0
Палма,41.9885984,21.4531326,,True,152,23:00,0
Дринкерс Парадајз,41.9964357,21.4147832,"{'Mo-Su': '00:00-01:00,10:00-24:00'}",False,292,00:00,0
Дринкерс Парадајз,41.9964357,21.4147832,"{'Mo-Su': '00:00-01:00,10:00-24:00'}",False,292,01:00,0
Дринкерс Парадајз,41.9964357,21.4147832,"{'Mo-Su': '00:00-01:00,10:00-24:00'}",False,292,02:00,0
Дринкерс Парадајз,41.9964357,21.4147832,"{'Mo-Su': '00:00-01:00,10:00-24:00'}",False,292,03:00,0
Дринкерс Парадајз,41.9964357,21.4147832,"{'Mo-Su': '00:00-01:00,10:00-24:00'}",False,292,04:00,0
Дринкерс Парадајз,41.9964357,21.4147832,"{'Mo-Su': '00:00-01:00,10:00-24:00'}",False,292,05:00,0
Дринкерс Парадајз,41.9964357,21.4147832,"{'Mo-Su': '00:00-01:00,10:00-24:00'}",False,292,06:00,0
Дринкерс Парадајз,41.9964357,21.4147832,"{'Mo-Su': '00:00-01:00,10:00-24:00'}",False,292,07:00,0
Дринкерс Парадајз,41.9964357,21.4147832,"{'Mo-Su': '00:00-01:00,10:00-24:00'}",False,292,08:00,0
Дринкерс Парадајз,41.9964357,21.4147832,"{'Mo-Su': '00:00-01:00,10:00-24:00'}",False,292,09:00,0
Дринкерс Парадајз,41.9964357,21.4147832,"{'Mo-Su': '00:00-01:00,10:00-24:00'}",False,292,10:00,0
Дринкерс Парадајз,41.9964357,21.4147832,"{'Mo-Su': '00:00-01:00,10:00-24:00'}",False,292,11:00,0
Дринкерс Парадајз,41.9964357,21.4147832,"{'Mo-Su': '00:00-01:00,10:00-24:00'}",False,292,12:00,0
Дринкерс Парадајз,41.9964357,21.4147832,"{'Mo-Su': '00:00-01:00,10:00-24:00'}",False,292,13:00,0
Дринкерс Парадајз,41.9964357,21.4147832,"{'Mo-Su': '00:00-01:00,10:00-24:00'}",False,292,14:00,0
Дринкерс Парадајз,41.9964357,21.4147832,"{'Mo-Su': '00:00-01:00,10:00-24:00'}",False,292,15:00,0
Дринкерс Парадајз,41.9964357,21.4147832,"{'Mo-Su': '00:00-01:00,10:00-24:00'}",False,292,16:00,0
Дринкерс Парадајз,41.9964357,21.4147832,"{'Mo-Su': '00:00-01:00,10:00-24:00'}",False,292,17:00,0
Дринкерс Парадајз,41.9964357,21.4147832,"{'Mo-Su': '00:00-01:00,10:00-24:00'}",False,292,18:00,0
Дринкерс Парадајз,41.9964357,21.4147832,"{'Mo-Su': '00:00-01:00,10:00-24:00'}",False,292,19:00,0
Дринкерс Парадајз,41.9964357,21.4147832,"{'Mo-Su': '00:00-01:00,10:00-24:00'}",False,292,20:00,0
Дринкерс Парадајз,41.9964357,21.4147832,"{'Mo-Su': '00:00-01:00,10:00-24:00'}",False,292,21:00,0
Дринкерс Парадајз,41.9964357,21.4147832,"{'Mo-Su': '00:00-01:00,10:00-24:00'}",False,292,22:00,0
Дринкерс Парадајз,41.9964357,21.4147832,"{'Mo-Su': '00:00-01:00,10:00-24:00'}",False,292,23:00,0
Брик бар,42.0064562,21.4270993,,False,15,00:00,0
Брик бар,42.0064562,21.4270993,,False,15,01:00,0
Брик бар,42.0064562,21.4270993,,False,15,02:00,0
Брик бар,42.0064562,21.4270993,,False,15,03:00,0
Брик бар,42.0064562,21.4270993,,False,15,04:00,0
Брик бар,42.0064562,21.4270993,,False,15,05:00,0
Брик бар,42.0064562,21.4270993,,False,15,06:00,0
Брик бар,42.0064562,21.4270993,,False,15,07:00,0
Брик бар,42.0064562,21.4270993,,False,15,08:00,0
Брик бар,42.0064562,21.4270993,,False,15,09:00,0
Брик бар,42.0064562,21.4270993,,False,15,10:00,0
Брик бар,42.0064562,21.4270993,,False,15,11:00,0
Брик бар,42.0064562,21.4270993,,False,15,12:00,0
Брик бар,42.0064562,21.4270993,,False,15,13:00,0
Брик бар,42.0064562,21.4270993,,False,15,14:00,0
Брик бар,42.0064562,21.4270993,,False,15,15:00,0
Брик бар,42.0064562,21.4270993,,False,15,16:00,0
Брик бар,42.0064562,21.4270993,,False,15,17:00,0
Брик бар,42.0064562,21.4270993,,False,15,18:00,0
Брик бар,42.0064562,21.4270993,,False,15,19:00,0
Брик бар,42.0064562,21.4270993,,False,15,20:00,0
Брик бар,42.0064562,21.4270993,,False,15,21:00,0
Брик бар,42.0064562,21.4270993,,False,15,22:00,0
Брик бар,42.0064562,21.4270993,,False,15,23:00,0
The Gallery,42.0038265,21.415006,"{'Mo-Th': '07:30-24:00, Fr 07:30-01:00, Sa 08:00-01:00, Su 08:00-24:00'}",False,129,00:00,0
The Gallery,42.0038265,21.415006,"{'Mo-Th': '07:30-24:00, Fr 07:30-01:00, Sa 08:00-01:00, Su 08:00-24:00'}",False,129,01:00,0
The Gallery,42.0038265,21.415006,"{'Mo-Th': '07:30-24:00, Fr 07:30-01:00, Sa 08:00-01:00, Su 08:00-24:00'}",False,129,02:00,0
The Gallery,42.0038265,21.415006,"{'Mo-Th': '07:30-24:00, Fr 07:30-01:00, Sa 08:00-01:00, Su 08:00-24:00'}",False,129,03:00,0
The Gallery,42.0038265,21.415006,"{'Mo-Th': '07:30-24:00, Fr 07:30-01:00, Sa 08:00-01:00, Su 08:00-24:00'}",False,129,04:00,0
The Gallery,42.0038265,21.415006,"{'Mo-Th': '07:30-24:00, Fr 07:30-01:00, Sa 08:00-01:00, Su 08:00-24:00'}",False,129,05:00,0
The Gallery,42.0038265,21.415006,"{'Mo-Th': '07:30-24:00, Fr 07:30-01:00, Sa 08:00-01:00, Su 08:00-24:00'}",False,129,06:00,0
The Gallery,42.0038265,21.415006,"{'Mo-Th': '07:30-24:00, Fr 07:30-01:00, Sa 08:00-01:00, Su 08:00-24:00'}",False,129,07:00,0
The Gallery,42.0038265,21.415006,"{'Mo-Th': '07:30-24:00, Fr 07:30-01:00, Sa 08:00-01:00, Su 08:00-24:00'}",False,129,08:00,0
The Gallery,42.0038265,21.415006,"{'Mo-Th': '07:30-24:00, Fr 07:30-01:00, Sa 08:00-01:00, Su 08:00-24:00'}",False,129,09:00,0
The Gallery,42.0038265,21.415006,"{'Mo-Th': '07:30-24:00, Fr 07:30-01:00, Sa 08:00-01:00, Su 08:00-24:00'}",False,129,10:00,0
The Gallery,42.0038265,21.415006,"{'Mo-Th': '07:30-24:00, Fr 07:30-01:00, Sa 08:00-01:00, Su 08:00-24:00'}",False,129,11:00,0
The Gallery,42.0038265,21.415006,"{'Mo-Th': '07:30-24:00, Fr 07:30-01:00, Sa 08:00-01:00, Su 08:00-24:00'}",False,129,12:00,0
The Gallery,42.0038265,21.415006,"{'Mo-Th': '07:30-24:00, Fr 07:30-01:00, Sa 08:00-01:00, Su 08:00-24:00'}",False,129,13:00,0
The Gallery,42.0038265,21.415006,"{'Mo-Th': '07:30-24:00, Fr 07:30-01:00, Sa 08:00-01:00, Su 08:00-24:00'}",False,129,14:00,0
The Gallery,42.0038265,21.415006,"{'Mo-Th': '07:30-24:00, Fr 07:30-01:00, Sa 08:00-01:00, Su 08:00-24:00'}",False,129,15:00,0
The Gallery,42.0038265,21.415006,"{'Mo-Th': '07:30-24:00, Fr 07:30-01:00, Sa 08:00-01:00, Su 08:00-24:00'}",False,129,16:00,0
The Gallery,42.0038265,21.415006,"{'Mo-Th': '07:30-24:00, Fr 07:30-01:00, Sa 08:00-01:00, Su 08:00-24:00'}",False,129,17:00,0
The Gallery,42.0038265,21.415006,"{'Mo-Th': '07:30-24:00, Fr 07:30-01:00, Sa 08:00-01:00, Su 08:00-24:00'}",False,129,18:00,0
The Gallery,42.0038265,21.415006,"{'Mo-Th': '07:30-24:00, Fr 07:30-01:00, Sa 08:00-01:00, Su 08:00-24:00'}",False,129,19:00,0
The Gallery,42.0038265,21.415006,"{'Mo-Th': '07:30-24:00, Fr 07:30-01:00, Sa 08:00-01:00, Su 08:00-24:00'}",False,129,20:00,0
The Gallery,42.0038265,21.415006,"{'Mo-Th': '07:30-24:00, Fr 07:30-01:00, Sa 08:00-01:00, Su 08:00-24:00'}",False,129,21:00,0
The Gallery,42.0038265,21.415006,"{'Mo-Th': '07:30-24:00, Fr 07:30-01:00, Sa 08:00-01:00, Su 08:00-24:00'}",False,129,22:00,0
The Gallery,42.0038265,21.415006,"{'Mo-Th': '07:30-24:00, Fr 07:30-01:00, Sa 08:00-01:00, Su 08:00-24:00'}",False,129,23:00,0
Жапон Кафе Бар,42.0040547,21.415173,{'07:30': '- 23:30'},False,220,00:00,0
Жапон Кафе Бар,42.0040547,21.415173,{'07:30': '- 23:30'},False,220,01:00,0
Жапон Кафе Бар,42.0040547,21.415173,{'07:30': '- 23:30'},False,220,02:00,0
Жапон Кафе Бар,42.0040547,21.415173,{'07:30': '- 23:30'},False,220,03:00,0
Жапон Кафе Бар,42.0040547,21.415173,{'07:30': '- 23:30'},False,220,04:00,0
Жапон Кафе Бар,42.0040547,21.415173,{'07:30': '- 23:30'},False,220,05:00,0
Жапон Кафе Бар,42.0040547,21.415173,{'07:30': '- 23:30'},False,220,06:00,0
Жапон Кафе Бар,42.0040547,21.415173,{'07:30': '- 23:30'},False,220,07:00,0
Жапон Кафе Бар,42.0040547,21.415173,{'07:30': '- 23:30'},False,220,08:00,0
Жапон Кафе Бар,42.0040547,21.415173,{'07:30': '- 23:30'},False,220,09:00,0
Жапон Кафе Бар,42.0040547,21.415173,{'07:30': '- 23:30'},False,220,10:00,0
Жапон Кафе Бар,42.0040547,21.415173,{'07:30': '- 23:30'},False,220,11:00,0
Жапон Кафе Бар,42.0040547,21.415173,{'07:30': '- 23:30'},False,220,12:00,0
Жапон Кафе Бар,42.0040547,21.415173,{'07:30': '- 23:30'},False,220,13:00,0
Жапон Кафе Бар,42.0040547,21.415173,{'07:30': '- 23:30'},False,220,14:00,0
Жапон Кафе Бар,42.0040547,21.415173,{'07:30': '- 23:30'},False,220,15:00,0
Жапон Кафе Бар,42.0040547,21.415173,{'07:30': '- 23:30'},False,220,16:00,0
Жапон Кафе Бар,42.0040547,21.415173,{'07:30': '- 23:30'},False,220,17:00,0
Жапон Кафе Бар,42.0040547,21.415173,{'07:30': '- 23:30'},False,220,18:00,0
Жапон Кафе Бар,42.0040547,21.415173,{'07:30': '- 23:30'},False,220,19:00,0
Жапон Кафе Бар,42.0040547,21.415173,{'07:30': '- 23:30'},False,220,20:00,0
Жапон Кафе Бар,42.0040547,21.415173,{'07:30': '- 23:30'},False,220,21:00,0
Жапон Кафе Бар,42.0040547,21.415173,{'07:30': '- 23:30'},False,220,22:00,0
Жапон Кафе Бар,42.0040547,21.415173,{'07:30': '- 23:30'},False,220,23:00,0
Play Cafe,42.0038662,21.3921091,,False,151,00:00,0
Play Cafe,42.0038662,21.3921091,,False,151,01:00,0
Play Cafe,42.0038662,21.3921091,,False,151,02:00,0
Play Cafe,42.0038662,21.3921091,,False,151,03:00,0
Play Cafe,42.0038662,21.3921091,,False,151,04:00,0
Play Cafe,42.0038662,21.3921091,,False,151,05:00,0
Play Cafe,42.0038662,21.3921091,,False,151,06:00,0
Play Cafe,42.0038662,21.3921091,,False,151,07:00,0
Play Cafe,42.0038662,21.3921091,,False,151,08:00,0
Play Cafe,42.0038662,21.3921091,,False,151,09:00,0
Play Cafe,42.0038662,21.3921091,,False,151,10:00,0
Play Cafe,42.0038662,21.3921091,,False,151,11:00,0
Play Cafe,42.0038662,21.3921091,,False,151,12:00,0
Play Cafe,42.0038662,21.3921091,,False,151,13:00,0
Play Cafe,42.0038662,21.3921091,,False,151,14:00,0
Play Cafe,42.0038662,21.3921091,,False,151,15:00,0
Play Cafe,42.0038662,21.3921091,,False,151,16:00,0
Play Cafe,42.0038662,21.3921091,,False,151,17:00,0
Play Cafe,42.0038662,21.3921091,,False,151,18:00,0
Play Cafe,42.0038662,21.3921091,,False,151,19:00,0
Play Cafe,42.0038662,21.3921091,,False,151,20:00,0
Play Cafe,42.0038662,21.3921091,,False,151,21:00,0
Play Cafe,42.0038662,21.3921091,,False,151,22:00,0
Play Cafe,42.0038662,21.3921091,,False,151,23:00,0
Гет Кафе,41.9728434,21.4448074,{'Mo-Su': '10:00-00:00'},False,234,00:00,0
Гет Кафе,41.9728434,21.4448074,{'Mo-Su': '10:00-00:00'},False,234,01:00,0
Гет Кафе,41.9728434,21.4448074,{'Mo-Su': '10:00-00:00'},False,234,02:00,0
Гет Кафе,41.9728434,21.4448074,{'Mo-Su': '10:00-00:00'},False,234,03:00,0
Гет Кафе,41.9728434,21.4448074,{'Mo-Su': '10:00-00:00'},False,234,04:00,0
Гет Кафе,41.9728434,21.4448074,{'Mo-Su': '10:00-00:00'},False,234,05:00,0
Гет Кафе,41.9728434,21.4448074,{'Mo-Su': '10:00-00:00'},False,234,06:00,0
Гет Кафе,41.9728434,21.4448074,{'Mo-Su': '10:00-00:00'},False,234,07:00,0
Гет Кафе,41.9728434,21.4448074,{'Mo-Su': '10:00-00:00'},False,234,08:00,0
Гет Кафе,41.9728434,21.4448074,{'Mo-Su': '10:00-00:00'},False,234,09:00,0
Гет Кафе,41.9728434,21.4448074,{'Mo-Su': '10:00-00:00'},False,234,10:00,0
Гет Кафе,41.9728434,21.4448074,{'Mo-Su': '10:00-00:00'},False,234,11:00,0
Гет Кафе,41.9728434,21.4448074,{'Mo-Su': '10:00-00:00'},False,234,12:00,0
Гет Кафе,41.9728434,21.4448074,{'Mo-Su': '10:00-00:00'},False,234,13:00,0
Гет Кафе,41.9728434,21.4448074,{'Mo-Su': '10:00-00:00'},False,234,14:00,0
Гет Кафе,41.9728434,21.4448074,{'Mo-Su': '10:00-00:00'},False,234,15:00,0
Гет Кафе,41.9728434,21.4448074,{'Mo-Su': '10:00-00:00'},False,234,16:00,0
Гет Кафе,41.9728434,21.4448074,{'Mo-Su': '10:00-00:00'},False,234,17:00,0
Гет Кафе,41.9728434,21.4448074,{'Mo-Su': '10:00-00:00'},False,234,18:00,0
Гет Кафе,41.9728434,21.4448074,{'Mo-Su': '10:00-00:00'},False,234,19:00,0
Гет Кафе,41.9728434,21.4448074,{'Mo-Su': '10:00-00:00'},False,234,20:00,0
Гет Кафе,41.9728434,21.4448074,{'Mo-Su': '10:00-00:00'},False,234,21:00,0
Гет Кафе,41.9728434,21.4448074,{'Mo-Su': '10:00-00:00'},False,234,22:00,0
Гет Кафе,41.9728434,21.4448074,{'Mo-Su': '10:00-00:00'},False,234,23:00,0
Van Gogh,42.0022762,21.4217791,,False,319,00:00,0
Van Gogh,42.0022762,21.4217791,,False,319,01:00,0
Van Gogh,42.0022762,21.4217791,,False,319,02:00,0
Van Gogh,42.0022762,21.4217791,,False,319,03:00,0
Van Gogh,42.0022762,21.4217791,,False,319,04:00,0
Van Gogh,42.0022762,21.4217791,,False,319,05:00,0
Van Gogh,42.0022762,21.4217791,,False,319,06:00,0
Van Gogh,42.0022762,21.4217791,,False,319,07:00,0
Van Gogh,42.0022762,21.4217791,,False,319,08:00,0
Van Gogh,42.0022762,21.4217791,,False,319,09:00,0
Van Gogh,42.0022762,21.4217791,,False,319,10:00,0
Van Gogh,42.0022762,21.4217791,,False,319,11:00,0
Van Gogh,42.0022762,21.4217791,,False,319,12:00,0
Van Gogh,42.0022762,21.4217791,,False,319,13:00,0
Van Gogh,42.0022762,21.4217791,,False,319,14:00,0
Van Gogh,42.0022762,21.4217791,,False,319,15:00,0
Van Gogh,42.0022762,21.4217791,,False,319,16:00,0
Van Gogh,42.0022762,21.4217791,,False,319,17:00,0
Van Gogh,42.0022762,21.4217791,,False,319,18:00,0
Van Gogh,42.0022762,21.4217791,,False,319,19:00,0
Van Gogh,42.0022762,21.4217791,,False,319,20:00,0
Van Gogh,42.0022762,21.4217791,,False,319,21:00,0
Van Gogh,42.0022762,21.4217791,,False,319,22:00,0
Van Gogh,42.0022762,21.4217791,,False,319,23:00,0
Centar Bar,41.9947622,21.4290413,{'Mo-Su': '09:00-23:00'},False,19,00:00,0
Centar Bar,41.9947622,21.4290413,{'Mo-Su': '09:00-23:00'},False,19,01:00,0
Centar Bar,41.9947622,21.4290413,{'Mo-Su': '09:00-23:00'},False,19,02:00,0
Centar Bar,41.9947622,21.4290413,{'Mo-Su': '09:00-23:00'},False,19,03:00,0
Centar Bar,41.9947622,21.4290413,{'Mo-Su': '09:00-23:00'},False,19,04:00,0
Centar Bar,41.9947622,21.4290413,{'Mo-Su': '09:00-23:00'},False,19,05:00,0
Centar Bar,41.9947622,21.4290413,{'Mo-Su': '09:00-23:00'},False,19,06:00,0
Centar Bar,41.9947622,21.4290413,{'Mo-Su': '09:00-23:00'},False,19,07:00,0
Centar Bar,41.9947622,21.4290413,{'Mo-Su': '09:00-23:00'},False,19,08:00,0
Centar Bar,41.9947622,21.4290413,{'Mo-Su': '09:00-23:00'},False,19,09:00,0
Centar Bar,41.9947622,21.4290413,{'Mo-Su': '09:00-23:00'},False,19,10:00,0
Centar Bar,41.9947622,21.4290413,{'Mo-Su': '09:00-23:00'},False,19,11:00,0
Centar Bar,41.9947622,21.4290413,{'Mo-Su': '09:00-23:00'},False,19,12:00,0
Centar Bar,41.9947622,21.4290413,{'Mo-Su': '09:00-23:00'},False,19,13:00,0
Centar Bar,41.9947622,21.4290413,{'Mo-Su': '09:00-23:00'},False,19,14:00,0
Centar Bar,41.9947622,21.4290413,{'Mo-Su': '09:00-23:00'},False,19,15:00,0
Centar Bar,41.9947622,21.4290413,{'Mo-Su': '09:00-23:00'},False,19,16:00,0
Centar Bar,41.9947622,21.4290413,{'Mo-Su': '09:00-23:00'},False,19,17:00,0
Centar Bar,41.9947622,21.4290413,{'Mo-Su': '09:00-23:00'},False,19,18:00,0
Centar Bar,41.9947622,21.4290413,{'Mo-Su': '09:00-23:00'},False,19,19:00,0
Centar Bar,41.9947622,21.4290413,{'Mo-Su': '09:00-23:00'},False,19,20:00,0
Centar Bar,41.9947622,21.4290413,{'Mo-Su': '09:00-23:00'},False,19,21:00,0
Centar Bar,41.9947622,21.4290413,{'Mo-Su': '09:00-23:00'},False,19,22:00,0
Centar Bar,41.9947622,21.4290413,{'Mo-Su': '09:00-23:00'},False,19,23:00,0
Mikel,41.9986406,21.4253762,,False,118,00:00,0
Mikel,41.9986406,21.4253762,,False,118,01:00,0
Mikel,41.9986406,21.4253762,,False,118,02:00,0
Mikel,41.9986406,21.4253762,,False,118,03:00,0
Mikel,41.9986406,21.4253762,,False,118,04:00,0
Mikel,41.9986406,21.4253762,,False,118,05:00,0
Mikel,41.9986406,21.4253762,,False,118,06:00,0
Mikel,41.9986406,21.4253762,,False,118,07:00,0
Mikel,41.9986406,21.4253762,,False,118,08:00,0
Mikel,41.9986406,21.4253762,,False,118,09:00,0
Mikel,41.9986406,21.4253762,,False,118,10:00,0
Mikel,41.9986406,21.4253762,,False,118,11:00,0
Mikel,41.9986406,21.4253762,,False,118,12:00,0
Mikel,41.9986406,21.4253762,,False,118,13:00,0
Mikel,41.9986406,21.4253762,,False,118,14:00,0
Mikel,41.9986406,21.4253762,,False,118,15:00,0
Mikel,41.9986406,21.4253762,,False,118,16:00,0
Mikel,41.9986406,21.4253762,,False,118,17:00,0
Mikel,41.9986406,21.4253762,,False,118,18:00,0
Mikel,41.9986406,21.4253762,,False,118,19:00,0
Mikel,41.9986406,21.4253762,,False,118,20:00,0
Mikel,41.9986406,21.4253762,,False,118,21:00,0
Mikel,41.9986406,21.4253762,,False,118,22:00,0
Mikel,41.9986406,21.4253762,,False,118,23:00,0
Radio bar,42.0002331,21.423451,"{'PH,Mo-Su': '09:00-24:00, Fr,Sa 09:00-01:00'}",False,267,00:00,0
Radio bar,42.0002331,21.423451,"{'PH,Mo-Su': '09:00-24:00, Fr,Sa 09:00-01:00'}",False,267,01:00,0
Radio bar,42.0002331,21.423451,"{'PH,Mo-Su': '09:00-24:00, Fr,Sa 09:00-01:00'}",False,267,02:00,0
Radio bar,42.0002331,21.423451,"{'PH,Mo-Su': '09:00-24:00, Fr,Sa 09:00-01:00'}",False,267,03:00,0
Radio bar,42.0002331,21.423451,"{'PH,Mo-Su': '09:00-24:00, Fr,Sa 09:00-01:00'}",False,267,04:00,0
Radio bar,42.0002331,21.423451,"{'PH,Mo-Su': '09:00-24:00, Fr,Sa 09:00-01:00'}",False,267,05:00,0
Radio bar,42.0002331,21.423451,"{'PH,Mo-Su': '09:00-24:00, Fr,Sa 09:00-01:00'}",False,267,06:00,0
Radio bar,42.0002331,21.423451,"{'PH,Mo-Su': '09:00-24:00, Fr,Sa 09:00-01:00'}",False,267,07:00,0
Radio bar,42.0002331,21.423451,"{'PH,Mo-Su': '09:00-24:00, Fr,Sa 09:00-01:00'}",False,267,08:00,0
Radio bar,42.0002331,21.423451,"{'PH,Mo-Su': '09:00-24:00, Fr,Sa 09:00-01:00'}",False,267,09:00,0
Radio bar,42.0002331,21.423451,"{'PH,Mo-Su': '09:00-24:00, Fr,Sa 09:00-01:00'}",False,267,10:00,0
Radio bar,42.0002331,21.423451,"{'PH,Mo-Su': '09:00-24:00, Fr,Sa 09:00-01:00'}",False,267,11:00,0
Radio bar,42.0002331,21.423451,"{'PH,Mo-Su': '09:00-24:00, Fr,Sa 09:00-01:00'}",False,267,12:00,0
Radio bar,42.0002331,21.423451,"{'PH,Mo-Su': '09:00-24:00, Fr,Sa 09:00-01:00'}",False,267,13:00,0
Radio bar,42.0002331,21.423451,"{'PH,Mo-Su': '09:00-24:00, Fr,Sa 09:00-01:00'}",False,267,14:00,0
Radio bar,42.0002331,21.423451,"{'PH,Mo-Su': '09:00-24:00, Fr,Sa 09:00-01:00'}",False,267,15:00,0
Radio bar,42.0002331,21.423451,"{'PH,Mo-Su': '09:00-24:00, Fr,Sa 09:00-01:00'}",False,267,16:00,0
Radio bar,42.0002331,21.423451,"{'PH,Mo-Su': '09:00-24:00, Fr,Sa 09:00-01:00'}",False,267,17:00,0
Radio bar,42.0002331,21.423451,"{'PH,Mo-Su': '09:00-24:00, Fr,Sa 09:00-01:00'}",False,267,18:00,0
Radio bar,42.0002331,21.423451,"{'PH,Mo-Su': '09:00-24:00, Fr,Sa 09:00-01:00'}",False,267,19:00,0
Radio bar,42.0002331,21.423451,"{'PH,Mo-Su': '09:00-24:00, Fr,Sa 09:00-01:00'}",False,267,20:00,0
Radio bar,42.0002331,21.423451,"{'PH,Mo-Su': '09:00-24:00, Fr,Sa 09:00-01:00'}",False,267,21:00,0
Radio bar,42.0002331,21.423451,"{'PH,Mo-Su': '09:00-24:00, Fr,Sa 09:00-01:00'}",False,267,22:00,0
Radio bar,42.0002331,21.423451,"{'PH,Mo-Su': '09:00-24:00, Fr,Sa 09:00-01:00'}",False,267,23:00,0
The Top of Vodno Millennium Cross Coffee Bar Skopje,41.9651051,21.3943158,,True,91,00:00,0
The Top of Vodno Millennium Cross Coffee Bar Skopje,41.9651051,21.3943158,,True,91,01:00,0
The Top of Vodno Millennium Cross Coffee Bar Skopje,41.9651051,21.3943158,,True,91,02:00,0
The Top of Vodno Millennium Cross Coffee Bar Skopje,41.9651051,21.3943158,,True,91,03:00,0
The Top of Vodno Millennium Cross Coffee Bar Skopje,41.9651051,21.3943158,,True,91,04:00,0
The Top of Vodno Millennium Cross Coffee Bar Skopje,41.9651051,21.3943158,,True,91,05:00,0
The Top of Vodno Millennium Cross Coffee Bar Skopje,41.9651051,21.3943158,,True,91,06:00,0
The Top of Vodno Millennium Cross Coffee Bar Skopje,41.9651051,21.3943158,,True,91,07:00,0
The Top of Vodno Millennium Cross Coffee Bar Skopje,41.9651051,21.3943158,,True,91,08:00,0
The Top of Vodno Millennium Cross Coffee Bar Skopje,41.9651051,21.3943158,,True,91,09:00,0
The Top of Vodno Millennium Cross Coffee Bar Skopje,41.9651051,21.3943158,,True,91,10:00,0
The Top of Vodno Millennium Cross Coffee Bar Skopje,41.9651051,21.3943158,,True,91,11:00,0
The Top of Vodno Millennium Cross Coffee Bar Skopje,41.9651051,21.3943158,,True,91,12:00,0
The Top of Vodno Millennium Cross Coffee Bar Skopje,41.9651051,21.3943158,,True,91,13:00,0
The Top of Vodno Millennium Cross Coffee Bar Skopje,41.9651051,21.3943158,,True,91,14:00,0
The Top of Vodno Millennium Cross Coffee Bar Skopje,41.9651051,21.3943158,,True,91,15:00,0
The Top of Vodno Millennium Cross Coffee Bar Skopje,41.9651051,21.3943158,,True,91,16:00,0
The Top of Vodno Millennium Cross Coffee Bar Skopje,41.9651051,21.3943158,,True,91,17:00,0
The Top of Vodno Millennium Cross Coffee Bar Skopje,41.9651051,21.3943158,,True,91,18:00,0
The Top of Vodno Millennium Cross Coffee Bar Skopje,41.9651051,21.3943158,,True,91,19:00,0
The Top of Vodno Millennium Cross Coffee Bar Skopje,41.9651051,21.3943158,,True,91,20:00,0
The Top of Vodno Millennium Cross Coffee Bar Skopje,41.9651051,21.3943158,,True,91,21:00,0
The Top of Vodno Millennium Cross Coffee Bar Skopje,41.9651051,21.3943158,,True,91,22:00,0
The Top of Vodno Millennium Cross Coffee Bar Skopje,41.9651051,21.3943158,,True,91,23:00,0
Woodstock,41.9955806,21.4113116,,False,190,00:00,0
Woodstock,41.9955806,21.4113116,,False,190,01:00,0
Woodstock,41.9955806,21.4113116,,False,190,02:00,0
Woodstock,41.9955806,21.4113116,,False,190,03:00,0
Woodstock,41.9955806,21.4113116,,False,190,04:00,0
Woodstock,41.9955806,21.4113116,,False,190,05:00,0
Woodstock,41.9955806,21.4113116,,False,190,06:00,0
Woodstock,41.9955806,21.4113116,,False,190,07:00,0
Woodstock,41.9955806,21.4113116,,False,190,08:00,0
Woodstock,41.9955806,21.4113116,,False,190,09:00,0
Woodstock,41.9955806,21.4113116,,False,190,10:00,0
Woodstock,41.9955806,21.4113116,,False,190,11:00,0
Woodstock,41.9955806,21.4113116,,False,190,12:00,0
Woodstock,41.9955806,21.4113116,,False,190,13:00,0
Woodstock,41.9955806,21.4113116,,False,190,14:00,0
Woodstock,41.9955806,21.4113116,,False,190,15:00,0
Woodstock,41.9955806,21.4113116,,False,190,16:00,0
Woodstock,41.9955806,21.4113116,,False,190,17:00,0
Woodstock,41.9955806,21.4113116,,False,190,18:00,0
Woodstock,41.9955806,21.4113116,,False,190,19:00,0
Woodstock,41.9955806,21.4113116,,False,190,20:00,0
Woodstock,41.9955806,21.4113116,,False,190,21:00,0
Woodstock,41.9955806,21.4113116,,False,190,22:00,0
Woodstock,41.9955806,21.4113116,,False,190,23:00,0
Mezzo,41.9947238,21.4173314,,False,202,00:00,0
Mezzo,41.9947238,21.4173314,,False,202,01:00,0
Mezzo,41.9947238,21.4173314,,False,202,02:00,0
Mezzo,41.9947238,21.4173314,,False,202,03:00,0
Mezzo,41.9947238,21.4173314,,False,202,04:00,0
Mezzo,41.9947238,21.4173314,,False,202,05:00,0
Mezzo,41.9947238,21.4173314,,False,202,06:00,0
Mezzo,41.9947238,21.4173314,,False,202,07:00,0
Mezzo,41.9947238,21.4173314,,False,202,08:00,0
Mezzo,41.9947238,21.4173314,,False,202,09:00,0
Mezzo,41.9947238,21.4173314,,False,202,10:00,0
Mezzo,41.9947238,21.4173314,,False,202,11:00,0
Mezzo,41.9947238,21.4173314,,False,202,12:00,0
Mezzo,41.9947238,21.4173314,,False,202,13:00,0
Mezzo,41.9947238,21.4173314,,False,202,14:00,0
Mezzo,41.9947238,21.4173314,,False,202,15:00,0
Mezzo,41.9947238,21.4173314,,False,202,16:00,0
Mezzo,41.9947238,21.4173314,,False,202,17:00,0
Mezzo,41.9947238,21.4173314,,False,202,18:00,0
Mezzo,41.9947238,21.4173314,,False,202,19:00,0
Mezzo,41.9947238,21.4173314,,False,202,20:00,0
Mezzo,41.9947238,21.4173314,,False,202,21:00,0
Mezzo,41.9947238,21.4173314,,False,202,22:00,0
Mezzo,41.9947238,21.4173314,,False,202,23:00,0
Joy Café & Bakery (Karposh),42.005579,21.4108992,,True,107,00:00,0
Joy Café & Bakery (Karposh),42.005579,21.4108992,,True,107,01:00,0
Joy Café & Bakery (Karposh),42.005579,21.4108992,,True,107,02:00,0
Joy Café & Bakery (Karposh),42.005579,21.4108992,,True,107,03:00,0
Joy Café & Bakery (Karposh),42.005579,21.4108992,,True,107,04:00,0
Joy Café & Bakery (Karposh),42.005579,21.4108992,,True,107,05:00,0
Joy Café & Bakery (Karposh),42.005579,21.4108992,,True,107,06:00,0
Joy Café & Bakery (Karposh),42.005579,21.4108992,,True,107,07:00,0
Joy Café & Bakery (Karposh),42.005579,21.4108992,,True,107,08:00,0
Joy Café & Bakery (Karposh),42.005579,21.4108992,,True,107,09:00,0
Joy Café & Bakery (Karposh),42.005579,21.4108992,,True,107,10:00,0
Joy Café & Bakery (Karposh),42.005579,21.4108992,,True,107,11:00,0
Joy Café & Bakery (Karposh),42.005579,21.4108992,,True,107,12:00,0
Joy Café & Bakery (Karposh),42.005579,21.4108992,,True,107,13:00,0
Joy Café & Bakery (Karposh),42.005579,21.4108992,,True,107,14:00,0
Joy Café & Bakery (Karposh),42.005579,21.4108992,,True,107,15:00,0
Joy Café & Bakery (Karposh),42.005579,21.4108992,,True,107,16:00,0
Joy Café & Bakery (Karposh),42.005579,21.4108992,,True,107,17:00,0
Joy Café & Bakery (Karposh),42.005579,21.4108992,,True,107,18:00,0
Joy Café & Bakery (Karposh),42.005579,21.4108992,,True,107,19:00,0
Joy Café & Bakery (Karposh),42.005579,21.4108992,,True,107,20:00,0
Joy Café & Bakery (Karposh),42.005579,21.4108992,,True,107,21:00,0
Joy Café & Bakery (Karposh),42.005579,21.4108992,,True,107,22:00,0
Joy Café & Bakery (Karposh),42.005579,21.4108992,,True,107,23:00,0
BKW Hybrid Bar,41.9970446,21.4061061,,True,205,00:00,0
BKW Hybrid Bar,41.9970446,21.4061061,,True,205,01:00,0
BKW Hybrid Bar,41.9970446,21.4061061,,True,205,02:00,0
BKW Hybrid Bar,41.9970446,21.4061061,,True,205,03:00,0
BKW Hybrid Bar,41.9970446,21.4061061,,True,205,04:00,0
BKW Hybrid Bar,41.9970446,21.4061061,,True,205,05:00,0
BKW Hybrid Bar,41.9970446,21.4061061,,True,205,06:00,0
BKW Hybrid Bar,41.9970446,21.4061061,,True,205,07:00,0
BKW Hybrid Bar,41.9970446,21.4061061,,True,205,08:00,0
BKW Hybrid Bar,41.9970446,21.4061061,,True,205,09:00,0
BKW Hybrid Bar,41.9970446,21.4061061,,True,205,10:00,0
BKW Hybrid Bar,41.9970446,21.4061061,,True,205,11:00,0
BKW Hybrid Bar,41.9970446,21.4061061,,True,205,12:00,0
BKW Hybrid Bar,41.9970446,21.4061061,,True,205,13:00,0
BKW Hybrid Bar,41.9970446,21.4061061,,True,205,14:00,0
BKW Hybrid Bar,41.9970446,21.4061061,,True,205,15:00,0
BKW Hybrid Bar,41.9970446,21.4061061,,True,205,16:00,0
BKW Hybrid Bar,41.9970446,21.4061061,,True,205,17:00,0
BKW Hybrid Bar,41.9970446,21.4061061,,True,205,18:00,0
BKW Hybrid Bar,41.9970446,21.4061061,,True,205,19:00,0
BKW Hybrid Bar,41.9970446,21.4061061,,True,205,20:00,0
BKW Hybrid Bar,41.9970446,21.4061061,,True,205,21:00,0
BKW Hybrid Bar,41.9970446,21.4061061,,True,205,22:00,0
BKW Hybrid Bar,41.9970446,21.4061061,,True,205,23:00,0
Three Kitchen Bar,41.9907645,21.4251713,,False,50,00:00,0
Three Kitchen Bar,41.9907645,21.4251713,,False,50,01:00,0
Three Kitchen Bar,41.9907645,21.4251713,,False,50,02:00,0
Three Kitchen Bar,41.9907645,21.4251713,,False,50,03:00,0
Three Kitchen Bar,41.9907645,21.4251713,,False,50,04:00,0
Three Kitchen Bar,41.9907645,21.4251713,,False,50,05:00,0
Three Kitchen Bar,41.9907645,21.4251713,,False,50,06:00,0
Three Kitchen Bar,41.9907645,21.4251713,,False,50,07:00,0
Three Kitchen Bar,41.9907645,21.4251713,,False,50,08:00,0
Three Kitchen Bar,41.9907645,21.4251713,,False,50,09:00,0
Three Kitchen Bar,41.9907645,21.4251713,,False,50,10:00,0
Three Kitchen Bar,41.9907645,21.4251713,,False,50,11:00,0
Three Kitchen Bar,41.9907645,21.4251713,,False,50,12:00,0
Three Kitchen Bar,41.9907645,21.4251713,,False,50,13:00,0
Three Kitchen Bar,41.9907645,21.4251713,,False,50,14:00,0
Three Kitchen Bar,41.9907645,21.4251713,,False,50,15:00,0
Three Kitchen Bar,41.9907645,21.4251713,,False,50,16:00,0
Three Kitchen Bar,41.9907645,21.4251713,,False,50,17:00,0
Three Kitchen Bar,41.9907645,21.4251713,,False,50,18:00,0
Three Kitchen Bar,41.9907645,21.4251713,,False,50,19:00,0
Three Kitchen Bar,41.9907645,21.4251713,,False,50,20:00,0
Three Kitchen Bar,41.9907645,21.4251713,,False,50,21:00,0
Three Kitchen Bar,41.9907645,21.4251713,,False,50,22:00,0
Three Kitchen Bar,41.9907645,21.4251713,,False,50,23:00,0
Distrikt,41.9963385,21.4306474,"{'Su-Th': '07:00-24:00, Fr,Sa 07:00-01:00'}",False,23,00:00,0
Distrikt,41.9963385,21.4306474,"{'Su-Th': '07:00-24:00, Fr,Sa 07:00-01:00'}",False,23,01:00,0
Distrikt,41.9963385,21.4306474,"{'Su-Th': '07:00-24:00, Fr,Sa 07:00-01:00'}",False,23,02:00,0
Distrikt,41.9963385,21.4306474,"{'Su-Th': '07:00-24:00, Fr,Sa 07:00-01:00'}",False,23,03:00,0
Distrikt,41.9963385,21.4306474,"{'Su-Th': '07:00-24:00, Fr,Sa 07:00-01:00'}",False,23,04:00,0
Distrikt,41.9963385,21.4306474,"{'Su-Th': '07:00-24:00, Fr,Sa 07:00-01:00'}",False,23,05:00,0
Distrikt,41.9963385,21.4306474,"{'Su-Th': '07:00-24:00, Fr,Sa 07:00-01:00'}",False,23,06:00,0
Distrikt,41.9963385,21.4306474,"{'Su-Th': '07:00-24:00, Fr,Sa 07:00-01:00'}",False,23,07:00,0
Distrikt,41.9963385,21.4306474,"{'Su-Th': '07:00-24:00, Fr,Sa 07:00-01:00'}",False,23,08:00,0
Distrikt,41.9963385,21.4306474,"{'Su-Th': '07:00-24:00, Fr,Sa 07:00-01:00'}",False,23,09:00,0
Distrikt,41.9963385,21.4306474,"{'Su-Th': '07:00-24:00, Fr,Sa 07:00-01:00'}",False,23,10:00,0
Distrikt,41.9963385,21.4306474,"{'Su-Th': '07:00-24:00, Fr,Sa 07:00-01:00'}",False,23,11:00,0
Distrikt,41.9963385,21.4306474,"{'Su-Th': '07:00-24:00, Fr,Sa 07:00-01:00'}",False,23,12:00,0
Distrikt,41.9963385,21.4306474,"{'Su-Th': '07:00-24:00, Fr,Sa 07:00-01:00'}",False,23,13:00,0
Distrikt,41.9963385,21.4306474,"{'Su-Th': '07:00-24:00, Fr,Sa 07:00-01:00'}",False,23,14:00,0
Distrikt,41.9963385,21.4306474,"{'Su-Th': '07:00-24:00, Fr,Sa 07:00-01:00'}",False,23,15:00,0
Distrikt,41.9963385,21.4306474,"{'Su-Th': '07:00-24:00, Fr,Sa 07:00-01:00'}",False,23,16:00,0
Distrikt,41.9963385,21.4306474,"{'Su-Th': '07:00-24:00, Fr,Sa 07:00-01:00'}",False,23,17:00,0
Distrikt,41.9963385,21.4306474,"{'Su-Th': '07:00-24:00, Fr,Sa 07:00-01:00'}",False,23,18:00,0
Distrikt,41.9963385,21.4306474,"{'Su-Th': '07:00-24:00, Fr,Sa 07:00-01:00'}",False,23,19:00,0
Distrikt,41.9963385,21.4306474,"{'Su-Th': '07:00-24:00, Fr,Sa 07:00-01:00'}",False,23,20:00,0
Distrikt,41.9963385,21.4306474,"{'Su-Th': '07:00-24:00, Fr,Sa 07:00-01:00'}",False,23,21:00,0
Distrikt,41.9963385,21.4306474,"{'Su-Th': '07:00-24:00, Fr,Sa 07:00-01:00'}",False,23,22:00,0
Distrikt,41.9963385,21.4306474,"{'Su-Th': '07:00-24:00, Fr,Sa 07:00-01:00'}",False,23,23:00,0
Рузвелт,42.0019011,21.413452,,False,120,00:00,0
Рузвелт,42.0019011,21.413452,,False,120,01:00,0
Рузвелт,42.0019011,21.413452,,False,120,02:00,0
Рузвелт,42.0019011,21.413452,,False,120,03:00,0
Рузвелт,42.0019011,21.413452,,False,120,04:00,0
Рузвелт,42.0019011,21.413452,,False,120,05:00,0
Рузвелт,42.0019011,21.413452,,False,120,06:00,0
Рузвелт,42.0019011,21.413452,,False,120,07:00,0
Рузвелт,42.0019011,21.413452,,False,120,08:00,0
Рузвелт,42.0019011,21.413452,,False,120,09:00,0
Рузвелт,42.0019011,21.413452,,False,120,10:00,0
Рузвелт,42.0019011,21.413452,,False,120,11:00,0
Рузвелт,42.0019011,21.413452,,False,120,12:00,0
Рузвелт,42.0019011,21.413452,,False,120,13:00,0
Рузвелт,42.0019011,21.413452,,False,120,14:00,0
Рузвелт,42.0019011,21.413452,,False,120,15:00,0
Рузвелт,42.0019011,21.413452,,False,120,16:00,0
Рузвелт,42.0019011,21.413452,,False,120,17:00,0
Рузвелт,42.0019011,21.413452,,False,120,18:00,0
Рузвелт,42.0019011,21.413452,,False,120,19:00,0
Рузвелт,42.0019011,21.413452,,False,120,20:00,0
Рузвелт,42.0019011,21.413452,,False,120,21:00,0
Рузвелт,42.0019011,21.413452,,False,120,22:00,0
Рузвелт,42.0019011,21.413452,,False,120,23:00,0
Marvel Coffee Bar,42.0052778,21.4107786,{'Mo-Su': '08:00-24:00'},True,158,00:00,0
Marvel Coffee Bar,42.0052778,21.4107786,{'Mo-Su': '08:00-24:00'},True,158,01:00,0
Marvel Coffee Bar,42.0052778,21.4107786,{'Mo-Su': '08:00-24:00'},True,158,02:00,0
Marvel Coffee Bar,42.0052778,21.4107786,{'Mo-Su': '08:00-24:00'},True,158,03:00,0
Marvel Coffee Bar,42.0052778,21.4107786,{'Mo-Su': '08:00-24:00'},True,158,04:00,0
Marvel Coffee Bar,42.0052778,21.4107786,{'Mo-Su': '08:00-24:00'},True,158,05:00,0
Marvel Coffee Bar,42.0052778,21.4107786,{'Mo-Su': '08:00-24:00'},True,158,06:00,0
Marvel Coffee Bar,42.0052778,21.4107786,{'Mo-Su': '08:00-24:00'},True,158,07:00,0
Marvel Coffee Bar,42.0052778,21.4107786,{'Mo-Su': '08:00-24:00'},True,158,08:00,0
Marvel Coffee Bar,42.0052778,21.4107786,{'Mo-Su': '08:00-24:00'},True,158,09:00,0
Marvel Coffee Bar,42.0052778,21.4107786,{'Mo-Su': '08:00-24:00'},True,158,10:00,0
Marvel Coffee Bar,42.0052778,21.4107786,{'Mo-Su': '08:00-24:00'},True,158,11:00,0
Marvel Coffee Bar,42.0052778,21.4107786,{'Mo-Su': '08:00-24:00'},True,158,12:00,0
Marvel Coffee Bar,42.0052778,21.4107786,{'Mo-Su': '08:00-24:00'},True,158,13:00,0
Marvel Coffee Bar,42.0052778,21.4107786,{'Mo-Su': '08:00-24:00'},True,158,14:00,0
Marvel Coffee Bar,42.0052778,21.4107786,{'Mo-Su': '08:00-24:00'},True,158,15:00,0
Marvel Coffee Bar,42.0052778,21.4107786,{'Mo-Su': '08:00-24:00'},True,158,16:00,0
Marvel Coffee Bar,42.0052778,21.4107786,{'Mo-Su': '08:00-24:00'},True,158,17:00,0
Marvel Coffee Bar,42.0052778,21.4107786,{'Mo-Su': '08:00-24:00'},True,158,18:00,0
Marvel Coffee Bar,42.0052778,21.4107786,{'Mo-Su': '08:00-24:00'},True,158,19:00,0
Marvel Coffee Bar,42.0052778,21.4107786,{'Mo-Su': '08:00-24:00'},True,158,20:00,0
Marvel Coffee Bar,42.0052778,21.4107786,{'Mo-Su': '08:00-24:00'},True,158,21:00,0
Marvel Coffee Bar,42.0052778,21.4107786,{'Mo-Su': '08:00-24:00'},True,158,22:00,0
Marvel Coffee Bar,42.0052778,21.4107786,{'Mo-Su': '08:00-24:00'},True,158,23:00,0
Lafe,41.9949215,21.4245361,,False,106,00:00,0
Lafe,41.9949215,21.4245361,,False,106,01:00,0
Lafe,41.9949215,21.4245361,,False,106,02:00,0
Lafe,41.9949215,21.4245361,,False,106,03:00,0
Lafe,41.9949215,21.4245361,,False,106,04:00,0
Lafe,41.9949215,21.4245361,,False,106,05:00,0
Lafe,41.9949215,21.4245361,,False,106,06:00,0
Lafe,41.9949215,21.4245361,,False,106,07:00,0
Lafe,41.9949215,21.4245361,,False,106,08:00,0
Lafe,41.9949215,21.4245361,,False,106,09:00,0
Lafe,41.9949215,21.4245361,,False,106,10:00,0
Lafe,41.9949215,21.4245361,,False,106,11:00,0
Lafe,41.9949215,21.4245361,,False,106,12:00,0
Lafe,41.9949215,21.4245361,,False,106,13:00,0
Lafe,41.9949215,21.4245361,,False,106,14:00,0
Lafe,41.9949215,21.4245361,,False,106,15:00,0
Lafe,41.9949215,21.4245361,,False,106,16:00,0
Lafe,41.9949215,21.4245361,,False,106,17:00,0
Lafe,41.9949215,21.4245361,,False,106,18:00,0
Lafe,41.9949215,21.4245361,,False,106,19:00,0
Lafe,41.9949215,21.4245361,,False,106,20:00,0
Lafe,41.9949215,21.4245361,,False,106,21:00,0
Lafe,41.9949215,21.4245361,,False,106,22:00,0
Lafe,41.9949215,21.4245361,,False,106,23:00,0
Chloé Café,42.001355,21.4228689,,False,39,00:00,0
Chloé Café,42.001355,21.4228689,,False,39,01:00,0
Chloé Café,42.001355,21.4228689,,False,39,02:00,0
Chloé Café,42.001355,21.4228689,,False,39,03:00,0
Chloé Café,42.001355,21.4228689,,False,39,04:00,0
Chloé Café,42.001355,21.4228689,,False,39,05:00,0
Chloé Café,42.001355,21.4228689,,False,39,06:00,0
Chloé Café,42.001355,21.4228689,,False,39,07:00,0
Chloé Café,42.001355,21.4228689,,False,39,08:00,0
Chloé Café,42.001355,21.4228689,,False,39,09:00,0
Chloé Café,42.001355,21.4228689,,False,39,10:00,0
Chloé Café,42.001355,21.4228689,,False,39,11:00,0
Chloé Café,42.001355,21.4228689,,False,39,12:00,0
Chloé Café,42.001355,21.4228689,,False,39,13:00,0
Chloé Café,42.001355,21.4228689,,False,39,14:00,0
Chloé Café,42.001355,21.4228689,,False,39,15:00,0
Chloé Café,42.001355,21.4228689,,False,39,16:00,0
Chloé Café,42.001355,21.4228689,,False,39,17:00,0
Chloé Café,42.001355,21.4228689,,False,39,18:00,0
Chloé Café,42.001355,21.4228689,,False,39,19:00,0
Chloé Café,42.001355,21.4228689,,False,39,20:00,0
Chloé Café,42.001355,21.4228689,,False,39,21:00,0
Chloé Café,42.001355,21.4228689,,False,39,22:00,0
Chloé Café,42.001355,21.4228689,,False,39,23:00,0
МКЦ,41.9962398,21.4425386,,False,2,00:00,0
МКЦ,41.9962398,21.4425386,,False,2,01:00,0
МКЦ,41.9962398,21.4425386,,False,2,02:00,0
МКЦ,41.9962398,21.4425386,,False,2,03:00,0
МКЦ,41.9962398,21.4425386,,False,2,04:00,0
МКЦ,41.9962398,21.4425386,,False,2,05:00,0
МКЦ,41.9962398,21.4425386,,False,2,06:00,0
МКЦ,41.9962398,21.4425386,,False,2,07:00,0
МКЦ,41.9962398,21.4425386,,False,2,08:00,0
МКЦ,41.9962398,21.4425386,,False,2,09:00,0
МКЦ,41.9962398,21.4425386,,False,2,10:00,0
МКЦ,41.9962398,21.4425386,,False,2,11:00,0
МКЦ,41.9962398,21.4425386,,False,2,12:00,0
МКЦ,41.9962398,21.4425386,,False,2,13:00,0
МКЦ,41.9962398,21.4425386,,False,2,14:00,0
МКЦ,41.9962398,21.4425386,,False,2,15:00,0
МКЦ,41.9962398,21.4425386,,False,2,16:00,0
МКЦ,41.9962398,21.4425386,,False,2,17:00,0
МКЦ,41.9962398,21.4425386,,False,2,18:00,0
МКЦ,41.9962398,21.4425386,,False,2,19:00,0
МКЦ,41.9962398,21.4425386,,False,2,20:00,0
МКЦ,41.9962398,21.4425386,,False,2,21:00,0
МКЦ,41.9962398,21.4425386,,False,2,22:00,0
МКЦ,41.9962398,21.4425386,,False,2,23:00,0
Mambo Gin Tonic Bar,42.0049547,21.4140471,,False,192,00:00,0
Mambo Gin Tonic Bar,42.0049547,21.4140471,,False,192,01:00,0
Mambo Gin Tonic Bar,42.0049547,21.4140471,,False,192,02:00,0
Mambo Gin Tonic Bar,42.0049547,21.4140471,,False,192,03:00,0
Mambo Gin Tonic Bar,42.0049547,21.4140471,,False,192,04:00,0
Mambo Gin Tonic Bar,42.0049547,21.4140471,,False,192,05:00,0
Mambo Gin Tonic Bar,42.0049547,21.4140471,,False,192,06:00,0
Mambo Gin Tonic Bar,42.0049547,21.4140471,,False,192,07:00,0
Mambo Gin Tonic Bar,42.0049547,21.4140471,,False,192,08:00,0
Mambo Gin Tonic Bar,42.0049547,21.4140471,,False,192,09:00,0
Mambo Gin Tonic Bar,42.0049547,21.4140471,,False,192,10:00,0
Mambo Gin Tonic Bar,42.0049547,21.4140471,,False,192,11:00,0
Mambo Gin Tonic Bar,42.0049547,21.4140471,,False,192,12:00,0
Mambo Gin Tonic Bar,42.0049547,21.4140471,,False,192,13:00,0
Mambo Gin Tonic Bar,42.0049547,21.4140471,,False,192,14:00,0
Mambo Gin Tonic Bar,42.0049547,21.4140471,,False,192,15:00,0
Mambo Gin Tonic Bar,42.0049547,21.4140471,,False,192,16:00,0
Mambo Gin Tonic Bar,42.0049547,21.4140471,,False,192,17:00,0
Mambo Gin Tonic Bar,42.0049547,21.4140471,,False,192,18:00,0
Mambo Gin Tonic Bar,42.0049547,21.4140471,,False,192,19:00,0
Mambo Gin Tonic Bar,42.0049547,21.4140471,,False,192,20:00,0
Mambo Gin Tonic Bar,42.0049547,21.4140471,,False,192,21:00,0
Mambo Gin Tonic Bar,42.0049547,21.4140471,,False,192,22:00,0
Mambo Gin Tonic Bar,42.0049547,21.4140471,,False,192,23:00,0
Lipa Cafe,42.002116,21.4264204,"{'Mo-Fr': '08:00-18:00', '': 'Sa-Su 09:00-17:00'}",True,275,00:00,0
Lipa Cafe,42.002116,21.4264204,"{'Mo-Fr': '08:00-18:00', '': 'Sa-Su 09:00-17:00'}",True,275,01:00,0
Lipa Cafe,42.002116,21.4264204,"{'Mo-Fr': '08:00-18:00', '': 'Sa-Su 09:00-17:00'}",True,275,02:00,0
Lipa Cafe,42.002116,21.4264204,"{'Mo-Fr': '08:00-18:00', '': 'Sa-Su 09:00-17:00'}",True,275,03:00,0
Lipa Cafe,42.002116,21.4264204,"{'Mo-Fr': '08:00-18:00', '': 'Sa-Su 09:00-17:00'}",True,275,04:00,0
Lipa Cafe,42.002116,21.4264204,"{'Mo-Fr': '08:00-18:00', '': 'Sa-Su 09:00-17:00'}",True,275,05:00,0
Lipa Cafe,42.002116,21.4264204,"{'Mo-Fr': '08:00-18:00', '': 'Sa-Su 09:00-17:00'}",True,275,06:00,0
Lipa Cafe,42.002116,21.4264204,"{'Mo-Fr': '08:00-18:00', '': 'Sa-Su 09:00-17:00'}",True,275,07:00,0
Lipa Cafe,42.002116,21.4264204,"{'Mo-Fr': '08:00-18:00', '': 'Sa-Su 09:00-17:00'}",True,275,08:00,0
Lipa Cafe,42.002116,21.4264204,"{'Mo-Fr': '08:00-18:00', '': 'Sa-Su 09:00-17:00'}",True,275,09:00,0
Lipa Cafe,42.002116,21.4264204,"{'Mo-Fr': '08:00-18:00', '': 'Sa-Su 09:00-17:00'}",True,275,10:00,0
Lipa Cafe,42.002116,21.4264204,"{'Mo-Fr': '08:00-18:00', '': 'Sa-Su 09:00-17:00'}",True,275,11:00,0
Lipa Cafe,42.002116,21.4264204,"{'Mo-Fr': '08:00-18:00', '': 'Sa-Su 09:00-17:00'}",True,275,12:00,0
Lipa Cafe,42.002116,21.4264204,"{'Mo-Fr': '08:00-18:00', '': 'Sa-Su 09:00-17:00'}",True,275,13:00,0
Lipa Cafe,42.002116,21.4264204,"{'Mo-Fr': '08:00-18:00', '': 'Sa-Su 09:00-17:00'}",True,275,14:00,0
Lipa Cafe,42.002116,21.4264204,"{'Mo-Fr': '08:00-18:00', '': 'Sa-Su 09:00-17:00'}",True,275,15:00,0
Lipa Cafe,42.002116,21.4264204,"{'Mo-Fr': '08:00-18:00', '': 'Sa-Su 09:00-17:00'}",True,275,16:00,0
Lipa Cafe,42.002116,21.4264204,"{'Mo-Fr': '08:00-18:00', '': 'Sa-Su 09:00-17:00'}",True,275,17:00,0
Lipa Cafe,42.002116,21.4264204,"{'Mo-Fr': '08:00-18:00', '': 'Sa-Su 09:00-17:00'}",True,275,18:00,0
Lipa Cafe,42.002116,21.4264204,"{'Mo-Fr': '08:00-18:00', '': 'Sa-Su 09:00-17:00'}",True,275,19:00,0
Lipa Cafe,42.002116,21.4264204,"{'Mo-Fr': '08:00-18:00', '': 'Sa-Su 09:00-17:00'}",True,275,20:00,0
Lipa Cafe,42.002116,21.4264204,"{'Mo-Fr': '08:00-18:00', '': 'Sa-Su 09:00-17:00'}",True,275,21:00,0
Lipa Cafe,42.002116,21.4264204,"{'Mo-Fr': '08:00-18:00', '': 'Sa-Su 09:00-17:00'}",True,275,22:00,0
Lipa Cafe,42.002116,21.4264204,"{'Mo-Fr': '08:00-18:00', '': 'Sa-Su 09:00-17:00'}",True,275,23:00,0
Трач бар,41.9896078,21.4479699,,False,45,00:00,0
Трач бар,41.9896078,21.4479699,,False,45,01:00,0
Трач бар,41.9896078,21.4479699,,False,45,02:00,0
Трач бар,41.9896078,21.4479699,,False,45,03:00,0
Трач бар,41.9896078,21.4479699,,False,45,04:00,0
Трач бар,41.9896078,21.4479699,,False,45,05:00,0
Трач бар,41.9896078,21.4479699,,False,45,06:00,0
Трач бар,41.9896078,21.4479699,,False,45,07:00,0
Трач бар,41.9896078,21.4479699,,False,45,08:00,0
Трач бар,41.9896078,21.4479699,,False,45,09:00,0
Трач бар,41.9896078,21.4479699,,False,45,10:00,0
Трач бар,41.9896078,21.4479699,,False,45,11:00,0
Трач бар,41.9896078,21.4479699,,False,45,12:00,0
Трач бар,41.9896078,21.4479699,,False,45,13:00,0
Трач бар,41.9896078,21.4479699,,False,45,14:00,0
Трач бар,41.9896078,21.4479699,,False,45,15:00,0
Трач бар,41.9896078,21.4479699,,False,45,16:00,0
Трач бар,41.9896078,21.4479699,,False,45,17:00,0
Трач бар,41.9896078,21.4479699,,False,45,18:00,0
Трач бар,41.9896078,21.4479699,,False,45,19:00,0
Трач бар,41.9896078,21.4479699,,False,45,20:00,0
Трач бар,41.9896078,21.4479699,,False,45,21:00,0
Трач бар,41.9896078,21.4479699,,False,45,22:00,0
Трач бар,41.9896078,21.4479699,,False,45,23:00,0
Кафе Блок,41.9876058,21.4510693,,False,129,00:00,0
Кафе Блок,41.9876058,21.4510693,,False,129,01:00,0
Кафе Блок,41.9876058,21.4510693,,False,129,02:00,0
Кафе Блок,41.9876058,21.4510693,,False,129,03:00,0
Кафе Блок,41.9876058,21.4510693,,False,129,04:00,0
Кафе Блок,41.9876058,21.4510693,,False,129,05:00,0
Кафе Блок,41.9876058,21.4510693,,False,129,06:00,0
Кафе Блок,41.9876058,21.4510693,,False,129,07:00,0
Кафе Блок,41.9876058,21.4510693,,False,129,08:00,0
Кафе Блок,41.9876058,21.4510693,,False,129,09:00,0
Кафе Блок,41.9876058,21.4510693,,False,129,10:00,0
Кафе Блок,41.9876058,21.4510693,,False,129,11:00,0
Кафе Блок,41.9876058,21.4510693,,False,129,12:00,0
Кафе Блок,41.9876058,21.4510693,,False,129,13:00,0
Кафе Блок,41.9876058,21.4510693,,False,129,14:00,0
Кафе Блок,41.9876058,21.4510693,,False,129,15:00,0
Кафе Блок,41.9876058,21.4510693,,False,129,16:00,0
Кафе Блок,41.9876058,21.4510693,,False,129,17:00,0
Кафе Блок,41.9876058,21.4510693,,False,129,18:00,0
Кафе Блок,41.9876058,21.4510693,,False,129,19:00,0
Кафе Блок,41.9876058,21.4510693,,False,129,20:00,0
Кафе Блок,41.9876058,21.4510693,,False,129,21:00,0
Кафе Блок,41.9876058,21.4510693,,False,129,22:00,0
Кафе Блок,41.9876058,21.4510693,,False,129,23:00,0
Кафе Само,42.000215,21.4251562,,False,45,00:00,0
Кафе Само,42.000215,21.4251562,,False,45,01:00,0
Кафе Само,42.000215,21.4251562,,False,45,02:00,0
Кафе Само,42.000215,21.4251562,,False,45,03:00,0
Кафе Само,42.000215,21.4251562,,False,45,04:00,0
Кафе Само,42.000215,21.4251562,,False,45,05:00,0
Кафе Само,42.000215,21.4251562,,False,45,06:00,0
Кафе Само,42.000215,21.4251562,,False,45,07:00,0
Кафе Само,42.000215,21.4251562,,False,45,08:00,0
Кафе Само,42.000215,21.4251562,,False,45,09:00,0
Кафе Само,42.000215,21.4251562,,False,45,10:00,0
Кафе Само,42.000215,21.4251562,,False,45,11:00,0
Кафе Само,42.000215,21.4251562,,False,45,12:00,0
Кафе Само,42.000215,21.4251562,,False,45,13:00,0
Кафе Само,42.000215,21.4251562,,False,45,14:00,0
Кафе Само,42.000215,21.4251562,,False,45,15:00,0
Кафе Само,42.000215,21.4251562,,False,45,16:00,0
Кафе Само,42.000215,21.4251562,,False,45,17:00,0
Кафе Само,42.000215,21.4251562,,False,45,18:00,0
Кафе Само,42.000215,21.4251562,,False,45,19:00,0
Кафе Само,42.000215,21.4251562,,False,45,20:00,0
Кафе Само,42.000215,21.4251562,,False,45,21:00,0
Кафе Само,42.000215,21.4251562,,False,45,22:00,0
Кафе Само,42.000215,21.4251562,,False,45,23:00,0
Кафе Snooze,41.9886541,21.4530304,,False,165,00:00,0
Кафе Snooze,41.9886541,21.4530304,,False,165,01:00,0
Кафе Snooze,41.9886541,21.4530304,,False,165,02:00,0
Кафе Snooze,41.9886541,21.4530304,,False,165,03:00,0
Кафе Snooze,41.9886541,21.4530304,,False,165,04:00,0
Кафе Snooze,41.9886541,21.4530304,,False,165,05:00,0
Кафе Snooze,41.9886541,21.4530304,,False,165,06:00,0
Кафе Snooze,41.9886541,21.4530304,,False,165,07:00,0
Кафе Snooze,41.9886541,21.4530304,,False,165,08:00,0
Кафе Snooze,41.9886541,21.4530304,,False,165,09:00,0
Кафе Snooze,41.9886541,21.4530304,,False,165,10:00,0
Кафе Snooze,41.9886541,21.4530304,,False,165,11:00,0
Кафе Snooze,41.9886541,21.4530304,,False,165,12:00,0
Кафе Snooze,41.9886541,21.4530304,,False,165,13:00,0
Кафе Snooze,41.9886541,21.4530304,,False,165,14:00,0
Кафе Snooze,41.9886541,21.4530304,,False,165,15:00,0
Кафе Snooze,41.9886541,21.4530304,,False,165,16:00,0
Кафе Snooze,41.9886541,21.4530304,,False,165,17:00,0
Кафе Snooze,41.9886541,21.4530304,,False,165,18:00,0
Кафе Snooze,41.9886541,21.4530304,,False,165,19:00,0
Кафе Snooze,41.9886541,21.4530304,,False,165,20:00,0
Кафе Snooze,41.9886541,21.4530304,,False,165,21:00,0
Кафе Snooze,41.9886541,21.4530304,,False,165,22:00,0
Кафе Snooze,41.9886541,21.4530304,,False,165,23:00,0
Cafe Bar Che,41.9991187,21.4172295,{'Mo-Su': '08:00-00:00'},False,280,00:00,0
Cafe Bar Che,41.9991187,21.4172295,{'Mo-Su': '08:00-00:00'},False,280,01:00,0
Cafe Bar Che,41.9991187,21.4172295,{'Mo-Su': '08:00-00:00'},False,280,02:00,0
Cafe Bar Che,41.9991187,21.4172295,{'Mo-Su': '08:00-00:00'},False,280,03:00,0
Cafe Bar Che,41.9991187,21.4172295,{'Mo-Su': '08:00-00:00'},False,280,04:00,0
Cafe Bar Che,41.9991187,21.4172295,{'Mo-Su': '08:00-00:00'},False,280,05:00,0
Cafe Bar Che,41.9991187,21.4172295,{'Mo-Su': '08:00-00:00'},False,280,06:00,0
Cafe Bar Che,41.9991187,21.4172295,{'Mo-Su': '08:00-00:00'},False,280,07:00,0
Cafe Bar Che,41.9991187,21.4172295,{'Mo-Su': '08:00-00:00'},False,280,08:00,0
Cafe Bar Che,41.9991187,21.4172295,{'Mo-Su': '08:00-00:00'},False,280,09:00,0
Cafe Bar Che,41.9991187,21.4172295,{'Mo-Su': '08:00-00:00'},False,280,10:00,0
Cafe Bar Che,41.9991187,21.4172295,{'Mo-Su': '08:00-00:00'},False,280,11:00,0
Cafe Bar Che,41.9991187,21.4172295,{'Mo-Su': '08:00-00:00'},False,280,12:00,0
Cafe Bar Che,41.9991187,21.4172295,{'Mo-Su': '08:00-00:00'},False,280,13:00,0
Cafe Bar Che,41.9991187,21.4172295,{'Mo-Su': '08:00-00:00'},False,280,14:00,0
Cafe Bar Che,41.9991187,21.4172295,{'Mo-Su': '08:00-00:00'},False,280,15:00,0
Cafe Bar Che,41.9991187,21.4172295,{'Mo-Su': '08:00-00:00'},False,280,16:00,0
Cafe Bar Che,41.9991187,21.4172295,{'Mo-Su': '08:00-00:00'},False,280,17:00,0
Cafe Bar Che,41.9991187,21.4172295,{'Mo-Su': '08:00-00:00'},False,280,18:00,0
Cafe Bar Che,41.9991187,21.4172295,{'Mo-Su': '08:00-00:00'},False,280,19:00,0
Cafe Bar Che,41.9991187,21.4172295,{'Mo-Su': '08:00-00:00'},False,280,20:00,0
Cafe Bar Che,41.9991187,21.4172295,{'Mo-Su': '08:00-00:00'},False,280,21:00,0
Cafe Bar Che,41.9991187,21.4172295,{'Mo-Su': '08:00-00:00'},False,280,22:00,0
Cafe Bar Che,41.9991187,21.4172295,{'Mo-Su': '08:00-00:00'},False,280,23:00,0
Duplo,41.9845018,21.4522109,,False,180,00:00,0
Duplo,41.9845018,21.4522109,,False,180,01:00,0
Duplo,41.9845018,21.4522109,,False,180,02:00,0
Duplo,41.9845018,21.4522109,,False,180,03:00,0
Duplo,41.9845018,21.4522109,,False,180,04:00,0
Duplo,41.9845018,21.4522109,,False,180,05:00,0
Duplo,41.9845018,21.4522109,,False,180,06:00,0
Duplo,41.9845018,21.4522109,,False,180,07:00,0
Duplo,41.9845018,21.4522109,,False,180,08:00,0
Duplo,41.9845018,21.4522109,,False,180,09:00,0
Duplo,41.9845018,21.4522109,,False,180,10:00,0
Duplo,41.9845018,21.4522109,,False,180,11:00,0
Duplo,41.9845018,21.4522109,,False,180,12:00,0
Duplo,41.9845018,21.4522109,,False,180,13:00,0
Duplo,41.9845018,21.4522109,,False,180,14:00,0
Duplo,41.9845018,21.4522109,,False,180,15:00,0
Duplo,41.9845018,21.4522109,,False,180,16:00,0
Duplo,41.9845018,21.4522109,,False,180,17:00,0
Duplo,41.9845018,21.4522109,,False,180,18:00,0
Duplo,41.9845018,21.4522109,,False,180,19:00,0
Duplo,41.9845018,21.4522109,,False,180,20:00,0
Duplo,41.9845018,21.4522109,,False,180,21:00,0
Duplo,41.9845018,21.4522109,,False,180,22:00,0
Duplo,41.9845018,21.4522109,,False,180,23:00,0
The Dude Specialty Coffee,41.9978001,21.4198865,,False,89,00:00,0
The Dude Specialty Coffee,41.9978001,21.4198865,,False,89,01:00,0
The Dude Specialty Coffee,41.9978001,21.4198865,,False,89,02:00,0
The Dude Specialty Coffee,41.9978001,21.4198865,,False,89,03:00,0
The Dude Specialty Coffee,41.9978001,21.4198865,,False,89,04:00,0
The Dude Specialty Coffee,41.9978001,21.4198865,,False,89,05:00,0
The Dude Specialty Coffee,41.9978001,21.4198865,,False,89,06:00,0
The Dude Specialty Coffee,41.9978001,21.4198865,,False,89,07:00,0
The Dude Specialty Coffee,41.9978001,21.4198865,,False,89,08:00,0
The Dude Specialty Coffee,41.9978001,21.4198865,,False,89,09:00,0
The Dude Specialty Coffee,41.9978001,21.4198865,,False,89,10:00,0
The Dude Specialty Coffee,41.9978001,21.4198865,,False,89,11:00,0
The Dude Specialty Coffee,41.9978001,21.4198865,,False,89,12:00,0
The Dude Specialty Coffee,41.9978001,21.4198865,,False,89,13:00,0
The Dude Specialty Coffee,41.9978001,21.4198865,,False,89,14:00,0
The Dude Specialty Coffee,41.9978001,21.4198865,,False,89,15:00,0
The Dude Specialty Coffee,41.9978001,21.4198865,,False,89,16:00,0
The Dude Specialty Coffee,41.9978001,21.4198865,,False,89,17:00,0
The Dude Specialty Coffee,41.9978001,21.4198865,,False,89,18:00,0
The Dude Specialty Coffee,41.9978001,21.4198865,,False,89,19:00,0
The Dude Specialty Coffee,41.9978001,21.4198865,,False,89,20:00,0
The Dude Specialty Coffee,41.9978001,21.4198865,,False,89,21:00,0
The Dude Specialty Coffee,41.9978001,21.4198865,,False,89,22:00,0
The Dude Specialty Coffee,41.9978001,21.4198865,,False,89,23:00,0
Ulica 22,41.9969682,21.4162719,,False,217,00:00,0
Ulica 22,41.9969682,21.4162719,,False,217,01:00,0
Ulica 22,41.9969682,21.4162719,,False,217,02:00,0
Ulica 22,41.9969682,21.4162719,,False,217,03:00,0
Ulica 22,41.9969682,21.4162719,,False,217,04:00,0
Ulica 22,41.9969682,21.4162719,,False,217,05:00,0
Ulica 22,41.9969682,21.4162719,,False,217,06:00,0
Ulica 22,41.9969682,21.4162719,,False,217,07:00,0
Ulica 22,41.9969682,21.4162719,,False,217,08:00,0
Ulica 22,41.9969682,21.4162719,,False,217,09:00,0
Ulica 22,41.9969682,21.4162719,,False,217,10:00,0
Ulica 22,41.9969682,21.4162719,,False,217,11:00,0
Ulica 22,41.9969682,21.4162719,,False,217,12:00,0
Ulica 22,41.9969682,21.4162719,,False,217,13:00,0
Ulica 22,41.9969682,21.4162719,,False,217,14:00,0
Ulica 22,41.9969682,21.4162719,,False,217,15:00,0
Ulica 22,41.9969682,21.4162719,,False,217,16:00,0
Ulica 22,41.9969682,21.4162719,,False,217,17:00,0
Ulica 22,41.9969682,21.4162719,,False,217,18:00,0
Ulica 22,41.9969682,21.4162719,,False,217,19:00,0
Ulica 22,41.9969682,21.4162719,,False,217,20:00,0
Ulica 22,41.9969682,21.4162719,,False,217,21:00,0
Ulica 22,41.9969682,21.4162719,,False,217,22:00,0
Ulica 22,41.9969682,21.4162719,,False,217,23:00,0
Rutina Coffee House,42.0038428,21.39821,,False,194,00:00,0
Rutina Coffee House,42.0038428,21.39821,,False,194,01:00,0
Rutina Coffee House,42.0038428,21.39821,,False,194,02:00,0
Rutina Coffee House,42.0038428,21.39821,,False,194,03:00,0
Rutina Coffee House,42.0038428,21.39821,,False,194,04:00,0
Rutina Coffee House,42.0038428,21.39821,,False,194,05:00,0
Rutina Coffee House,42.0038428,21.39821,,False,194,06:00,0
Rutina Coffee House,42.0038428,21.39821,,False,194,07:00,0
Rutina Coffee House,42.0038428,21.39821,,False,194,08:00,0
Rutina Coffee House,42.0038428,21.39821,,False,194,09:00,0
Rutina Coffee House,42.0038428,21.39821,,False,194,10:00,0
Rutina Coffee House,42.0038428,21.39821,,False,194,11:00,0
Rutina Coffee House,42.0038428,21.39821,,False,194,12:00,0
Rutina Coffee House,42.0038428,21.39821,,False,194,13:00,0
Rutina Coffee House,42.0038428,21.39821,,False,194,14:00,0
Rutina Coffee House,42.0038428,21.39821,,False,194,15:00,0
Rutina Coffee House,42.0038428,21.39821,,False,194,16:00,0
Rutina Coffee House,42.0038428,21.39821,,False,194,17:00,0
Rutina Coffee House,42.0038428,21.39821,,False,194,18:00,0
Rutina Coffee House,42.0038428,21.39821,,False,194,19:00,0
Rutina Coffee House,42.0038428,21.39821,,False,194,20:00,0
Rutina Coffee House,42.0038428,21.39821,,False,194,21:00,0
Rutina Coffee House,42.0038428,21.39821,,False,194,22:00,0
Rutina Coffee House,42.0038428,21.39821,,False,194,23:00,0
Dobar Bar,42.0082007,21.3689898,,False,11,00:00,0
Dobar Bar,42.0082007,21.3689898,,False,11,01:00,0
Dobar Bar,42.0082007,21.3689898,,False,11,02:00,0
Dobar Bar,42.0082007,21.3689898,,False,11,03:00,0
Dobar Bar,42.0082007,21.3689898,,False,11,04:00,0
Dobar Bar,42.0082007,21.3689898,,False,11,05:00,0
Dobar Bar,42.0082007,21.3689898,,False,11,06:00,0
Dobar Bar,42.0082007,21.3689898,,False,11,07:00,0
Dobar Bar,42.0082007,21.3689898,,False,11,08:00,0
Dobar Bar,42.0082007,21.3689898,,False,11,09:00,0
Dobar Bar,42.0082007,21.3689898,,False,11,10:00,0
Dobar Bar,42.0082007,21.3689898,,False,11,11:00,0
Dobar Bar,42.0082007,21.3689898,,False,11,12:00,0
Dobar Bar,42.0082007,21.3689898,,False,11,13:00,0
Dobar Bar,42.0082007,21.3689898,,False,11,14:00,0
Dobar Bar,42.0082007,21.3689898,,False,11,15:00,0
Dobar Bar,42.0082007,21.3689898,,False,11,16:00,0
Dobar Bar,42.0082007,21.3689898,,False,11,17:00,0
Dobar Bar,42.0082007,21.3689898,,False,11,18:00,0
Dobar Bar,42.0082007,21.3689898,,False,11,19:00,0
Dobar Bar,42.0082007,21.3689898,,False,11,20:00,0
Dobar Bar,42.0082007,21.3689898,,False,11,21:00,0
Dobar Bar,42.0082007,21.3689898,,False,11,22:00,0
Dobar Bar,42.0082007,21.3689898,,False,11,23:00,0
ABC Tennis Club,42.0070935,21.4138696,,False,192,00:00,0
ABC Tennis Club,42.0070935,21.4138696,,False,192,01:00,0
ABC Tennis Club,42.0070935,21.4138696,,False,192,02:00,0
ABC Tennis Club,42.0070935,21.4138696,,False,192,03:00,0
ABC Tennis Club,42.0070935,21.4138696,,False,192,04:00,0
ABC Tennis Club,42.0070935,21.4138696,,False,192,05:00,0
ABC Tennis Club,42.0070935,21.4138696,,False,192,06:00,0
ABC Tennis Club,42.0070935,21.4138696,,False,192,07:00,0
ABC Tennis Club,42.0070935,21.4138696,,False,192,08:00,0
ABC Tennis Club,42.0070935,21.4138696,,False,192,09:00,0
ABC Tennis Club,42.0070935,21.4138696,,False,192,10:00,0
ABC Tennis Club,42.0070935,21.4138696,,False,192,11:00,0
ABC Tennis Club,42.0070935,21.4138696,,False,192,12:00,0
ABC Tennis Club,42.0070935,21.4138696,,False,192,13:00,0
ABC Tennis Club,42.0070935,21.4138696,,False,192,14:00,0
ABC Tennis Club,42.0070935,21.4138696,,False,192,15:00,0
ABC Tennis Club,42.0070935,21.4138696,,False,192,16:00,0
ABC Tennis Club,42.0070935,21.4138696,,False,192,17:00,0
ABC Tennis Club,42.0070935,21.4138696,,False,192,18:00,0
ABC Tennis Club,42.0070935,21.4138696,,False,192,19:00,0
ABC Tennis Club,42.0070935,21.4138696,,False,192,20:00,0
ABC Tennis Club,42.0070935,21.4138696,,False,192,21:00,0
ABC Tennis Club,42.0070935,21.4138696,,False,192,22:00,0
ABC Tennis Club,42.0070935,21.4138696,,False,192,23:00,0
EDGE Specialty Coffee,41.9968767,21.423032,,False,183,00:00,0
EDGE Specialty Coffee,41.9968767,21.423032,,False,183,01:00,0
EDGE Specialty Coffee,41.9968767,21.423032,,False,183,02:00,0
EDGE Specialty Coffee,41.9968767,21.423032,,False,183,03:00,0
EDGE Specialty Coffee,41.9968767,21.423032,,False,183,04:00,0
EDGE Specialty Coffee,41.9968767,21.423032,,False,183,05:00,0
EDGE Specialty Coffee,41.9968767,21.423032,,False,183,06:00,0
EDGE Specialty Coffee,41.9968767,21.423032,,False,183,07:00,0
EDGE Specialty Coffee,41.9968767,21.423032,,False,183,08:00,0
EDGE Specialty Coffee,41.9968767,21.423032,,False,183,09:00,0
EDGE Specialty Coffee,41.9968767,21.423032,,False,183,10:00,0
EDGE Specialty Coffee,41.9968767,21.423032,,False,183,11:00,0
EDGE Specialty Coffee,41.9968767,21.423032,,False,183,12:00,0
EDGE Specialty Coffee,41.9968767,21.423032,,False,183,13:00,0
EDGE Specialty Coffee,41.9968767,21.423032,,False,183,14:00,0
EDGE Specialty Coffee,41.9968767,21.423032,,False,183,15:00,0
EDGE Specialty Coffee,41.9968767,21.423032,,False,183,16:00,0
EDGE Specialty Coffee,41.9968767,21.423032,,False,183,17:00,0
EDGE Specialty Coffee,41.9968767,21.423032,,False,183,18:00,0
EDGE Specialty Coffee,41.9968767,21.423032,,False,183,19:00,0
EDGE Specialty Coffee,41.9968767,21.423032,,False,183,20:00,0
EDGE Specialty Coffee,41.9968767,21.423032,,False,183,21:00,0
EDGE Specialty Coffee,41.9968767,21.423032,,False,183,22:00,0
EDGE Specialty Coffee,41.9968767,21.423032,,False,183,23:00,0
